{"type": "FeatureCollection", "features": [{"type": "Feature", "geometry": {"type": "LineString", "coordinates": [[-81.0466238, 32.3183371], [-81.1032782, 32.3439591]]}, "properties": {"overlap_label": "OVL_1", "utility_a": "DESC", "project_id_a": "06367 D - G", "name_a": "Jasper \u2013 Okatie 230 kV #2: Construct", "utility_b": "GPC", "project_id_b": "20277", "name_b": "SAV: MCINTOSH - PURRYSBURG 230KV REACTORS", "center_distance_mi": 3.75, "closest_distance_km": 0.0, "proximity_tier": "touching/crossing", "in_service_gap_days": 152, "build_windows_overlap": true, "location_confidence": "low", "override_involved": false, "score": 0.8533, "shared_row_acres": 102.8}}, {"type": "Feature", "geometry": {"type": "LineString", "coordinates": [[-81.910981, 33.45328635], [-81.9498935, 33.451642]]}, "properties": {"overlap_label": "OVL_2", "utility_a": "DESC", "project_id_a": "6810 O", "name_a": "Urquhart \u2013 Aiken PSA 46 kV: Rebuild", "utility_b": "GPC", "project_id_b": "16007", "name_b": "FENWICK STREET - SAND BAR FERRY 115KV (RECONDUCTOR/REBUILD)", "center_distance_mi": 2.25, "closest_distance_km": 2.32, "proximity_tier": "under 8 km", "in_service_gap_days": 578, "build_windows_overlap": false, "location_confidence": "low", "override_involved": false, "score": 0.7788, "shared_row_acres": null}}, {"type": "Feature", "geometry": {"type": "LineString", "coordinates": [[-81.7892681, 33.4840049], [-81.9498935, 33.451642]]}, "properties": {"overlap_label": "OVL_3", "utility_a": "DESC", "project_id_a": "6852", "name_a": "Urquhart \u2013 Toolebeck 115kV line: Rebuild", "utility_b": "GPC", "project_id_b": "16007", "name_b": "FENWICK STREET - SAND BAR FERRY 115KV (RECONDUCTOR/REBUILD)", "center_distance_mi": 9.52, "closest_distance_km": 2.6, "proximity_tier": "under 8 km", "in_service_gap_days": 72, "build_windows_overlap": true, "location_confidence": "low", "override_involved": false, "score": 0.7136, "shared_row_acres": null}}, {"type": "Feature", "geometry": {"type": "LineString", "coordinates": [[-80.968648, 32.277554], [-81.1032782, 32.3439591]]}, "properties": {"overlap_label": "OVL_4", "utility_a": "DESC", "project_id_a": "06367 A - C, H", "name_a": "Riverport Tap: Construct Tap", "utility_b": "GPC", "project_id_b": "20277", "name_b": "SAV: MCINTOSH - PURRYSBURG 230KV REACTORS", "center_distance_mi": 9.1, "closest_distance_km": 8.76, "proximity_tier": "under 25 mi", "in_service_gap_days": 152, "build_windows_overlap": true, "location_confidence": "low", "override_involved": false, "score": 0.7035, "shared_row_acres": null}}, {"type": "Feature", "geometry": {"type": "LineString", "coordinates": [[-81.07188, 32.314835], [-81.1032782, 32.3439591]]}, "properties": {"overlap_label": "OVL_5", "utility_a": "DESC", "project_id_a": "6888", "name_a": "Okatie \u2013 McIntosh 115kV Tie: Add Series Reactor", "utility_b": "GPC", "project_id_b": "20277", "name_b": "SAV: MCINTOSH - PURRYSBURG 230KV REACTORS", "center_distance_mi": 2.72, "closest_distance_km": 0.0, "proximity_tier": "touching/crossing", "in_service_gap_days": 944, "build_windows_overlap": false, "location_confidence": "low", "override_involved": false, "score": 0.6652, "shared_row_acres": 102.8}}, {"type": "Feature", "geometry": {"type": "LineString", "coordinates": [[-81.07188, 32.314835], [-81.1922924, 32.3004087]]}, "properties": {"overlap_label": "OVL_6", "utility_a": "DESC", "project_id_a": "6888", "name_a": "Okatie \u2013 McIntosh 115kV Tie: Add Series Reactor", "utility_b": "GPC", "project_id_b": "20065", "name_b": "SAV: GOSHEN (SAV) - MCINTOSH 115KV LINE REBUILD", "center_distance_mi": 7.1, "closest_distance_km": 0.0, "proximity_tier": "touching/crossing", "in_service_gap_days": 579, "build_windows_overlap": false, "location_confidence": "low", "override_involved": false, "score": 0.6425, "shared_row_acres": 89.7}}, {"type": "Feature", "geometry": {"type": "LineString", "coordinates": [[-81.0466238, 32.3183371], [-81.1922924, 32.3004087]]}, "properties": {"overlap_label": "OVL_7", "utility_a": "DESC", "project_id_a": "06367 D - G", "name_a": "Jasper \u2013 Okatie 230 kV #2: Construct", "utility_b": "GPC", "project_id_b": "20065", "name_b": "SAV: GOSHEN (SAV) - MCINTOSH 115KV LINE REBUILD", "center_distance_mi": 8.6, "closest_distance_km": 4.81, "proximity_tier": "under 8 km", "in_service_gap_days": 517, "build_windows_overlap": true, "location_confidence": "low", "override_involved": false, "score": 0.6177, "shared_row_acres": null}}, {"type": "Feature", "geometry": {"type": "LineString", "coordinates": [[-80.968648, 32.277554], [-81.1032782, 32.3439591]]}, "properties": {"overlap_label": "OVL_8", "utility_a": "DESC", "project_id_a": "0139 M,N", "name_a": "Okatie 230-115kV Substation, Jasper \u2013 Yemassee 230kV #1 Fold-in", "utility_b": "GPC", "project_id_b": "20277", "name_b": "SAV: MCINTOSH - PURRYSBURG 230KV REACTORS", "center_distance_mi": 9.1, "closest_distance_km": 8.76, "proximity_tier": "under 25 mi", "in_service_gap_days": 517, "build_windows_overlap": true, "location_confidence": "low", "override_involved": false, "score": 0.6035, "shared_row_acres": null}}, {"type": "Feature", "geometry": {"type": "LineString", "coordinates": [[-82.17770435, 33.65847365], [-82.1822894, 33.60206075]]}, "properties": {"overlap_label": "OVL_9", "utility_a": "DESC", "project_id_a": "6810 A", "name_a": "Hooks - Thurmond 115kV Tie: Rebuild", "utility_b": "GPC", "project_id_b": "20793", "name_b": "EVANS PRIMARY - THURMOND DAM (USA) #5 115KV REBUILD", "center_distance_mi": 3.91, "closest_distance_km": 0.0, "proximity_tier": "touching/crossing", "in_service_gap_days": 3074, "build_windows_overlap": false, "location_confidence": "medium", "override_involved": false, "score": 0.5906, "shared_row_acres": 25.6}}, {"type": "Feature", "geometry": {"type": "LineString", "coordinates": [[-82.17770435, 33.65847365], [-82.1822894, 33.60206075]]}, "properties": {"overlap_label": "OVL_10", "utility_a": "DESC", "project_id_a": "6810 A", "name_a": "Hooks - Thurmond 115kV Tie: Rebuild", "utility_b": "GPC", "project_id_b": "20794", "name_b": "EVANS PRIMARY - THURMOND DAM (USA) #6 115KV REBUILD", "center_distance_mi": 3.91, "closest_distance_km": 0.0, "proximity_tier": "touching/crossing", "in_service_gap_days": 3074, "build_windows_overlap": false, "location_confidence": "medium", "override_involved": false, "score": 0.5906, "shared_row_acres": 25.6}}, {"type": "Feature", "geometry": {"type": "LineString", "coordinates": [[-82.1054199, 33.60970965], [-82.1822894, 33.60206075]]}, "properties": {"overlap_label": "OVL_11", "utility_a": "DESC", "project_id_a": "6809 G", "name_a": "Stevens Creek - Hooks 115kV/LR Plumb Branch 46kV", "utility_b": "GPC", "project_id_b": "20794", "name_b": "EVANS PRIMARY - THURMOND DAM (USA) #6 115KV REBUILD", "center_distance_mi": 4.45, "closest_distance_km": 3.24, "proximity_tier": "under 8 km", "in_service_gap_days": 2709, "build_windows_overlap": false, "location_confidence": "low", "override_involved": false, "score": 0.5753, "shared_row_acres": null}}, {"type": "Feature", "geometry": {"type": "LineString", "coordinates": [[-82.1054199, 33.60970965], [-82.1822894, 33.60206075]]}, "properties": {"overlap_label": "OVL_12", "utility_a": "DESC", "project_id_a": "6809 G", "name_a": "Stevens Creek - Hooks 115kV/LR Plumb Branch 46kV", "utility_b": "GPC", "project_id_b": "20793", "name_b": "EVANS PRIMARY - THURMOND DAM (USA) #5 115KV REBUILD", "center_distance_mi": 4.45, "closest_distance_km": 3.24, "proximity_tier": "under 8 km", "in_service_gap_days": 2709, "build_windows_overlap": false, "location_confidence": "low", "override_involved": false, "score": 0.5753, "shared_row_acres": null}}, {"type": "Feature", "geometry": {"type": "LineString", "coordinates": [[-82.1054199, 33.60970965], [-82.1822894, 33.60206075]]}, "properties": {"overlap_label": "OVL_13", "utility_a": "DESC", "project_id_a": "6809 E", "name_a": "Stevens Creek - Hooks 115kV/LR Plumb Branch 46kV Rebuilds", "utility_b": "GPC", "project_id_b": "20793", "name_b": "EVANS PRIMARY - THURMOND DAM (USA) #5 115KV REBUILD", "center_distance_mi": 4.45, "closest_distance_km": 3.24, "proximity_tier": "under 8 km", "in_service_gap_days": 3074, "build_windows_overlap": false, "location_confidence": "low", "override_involved": false, "score": 0.5753, "shared_row_acres": null}}, {"type": "Feature", "geometry": {"type": "LineString", "coordinates": [[-82.1054199, 33.60970965], [-82.1822894, 33.60206075]]}, "properties": {"overlap_label": "OVL_14", "utility_a": "DESC", "project_id_a": "6809 E", "name_a": "Stevens Creek - Hooks 115kV/LR Plumb Branch 46kV Rebuilds", "utility_b": "GPC", "project_id_b": "20794", "name_b": "EVANS PRIMARY - THURMOND DAM (USA) #6 115KV REBUILD", "center_distance_mi": 4.45, "closest_distance_km": 3.24, "proximity_tier": "under 8 km", "in_service_gap_days": 3074, "build_windows_overlap": false, "location_confidence": "low", "override_involved": false, "score": 0.5753, "shared_row_acres": null}}, {"type": "Feature", "geometry": {"type": "LineString", "coordinates": [[-82.1054199, 33.60970965], [-81.9498935, 33.451642]]}, "properties": {"overlap_label": "OVL_15", "utility_a": "DESC", "project_id_a": "6809 G", "name_a": "Stevens Creek - Hooks 115kV/LR Plumb Branch 46kV", "utility_b": "GPC", "project_id_b": "16007", "name_b": "FENWICK STREET - SAND BAR FERRY 115KV (RECONDUCTOR/REBUILD)", "center_distance_mi": 14.13, "closest_distance_km": 13.88, "proximity_tier": "under 25 mi", "in_service_gap_days": 152, "build_windows_overlap": true, "location_confidence": "low", "override_involved": false, "score": 0.5629, "shared_row_acres": null}}, {"type": "Feature", "geometry": {"type": "LineString", "coordinates": [[-81.07188, 32.314835], [-81.17772795, 32.19841825]]}, "properties": {"overlap_label": "OVL_16", "utility_a": "DESC", "project_id_a": "6888", "name_a": "Okatie \u2013 McIntosh 115kV Tie: Add Series Reactor", "utility_b": "GPC", "project_id_b": "20785", "name_b": "SAV: GOSHEN (SAV) - KRAFT 115KV LINE REBUILD", "center_distance_mi": 10.15, "closest_distance_km": 11.84, "proximity_tier": "under 25 mi", "in_service_gap_days": 579, "build_windows_overlap": false, "location_confidence": "low", "override_involved": false, "score": 0.5573, "shared_row_acres": null}}, {"type": "Feature", "geometry": {"type": "LineString", "coordinates": [[-80.9110158, 32.2562906], [-81.1032782, 32.3439591]]}, "properties": {"overlap_label": "OVL_17", "utility_a": "DESC", "project_id_a": "6808 S", "name_a": "Okatie-Bluffton 115kV: Rebuild", "utility_b": "GPC", "project_id_b": "20277", "name_b": "SAV: MCINTOSH - PURRYSBURG 230KV REACTORS", "center_distance_mi": 12.76, "closest_distance_km": 8.76, "proximity_tier": "under 25 mi", "in_service_gap_days": 365, "build_windows_overlap": true, "location_confidence": "low", "override_involved": false, "score": 0.5428, "shared_row_acres": null}}, {"type": "Feature", "geometry": {"type": "LineString", "coordinates": [[-81.0466238, 32.3183371], [-81.17772795, 32.19841825]]}, "properties": {"overlap_label": "OVL_18", "utility_a": "DESC", "project_id_a": "06367 D - G", "name_a": "Jasper \u2013 Okatie 230 kV #2: Construct", "utility_b": "GPC", "project_id_b": "20785", "name_b": "SAV: GOSHEN (SAV) - KRAFT 115KV LINE REBUILD", "center_distance_mi": 11.28, "closest_distance_km": 14.64, "proximity_tier": "under 25 mi", "in_service_gap_days": 517, "build_windows_overlap": true, "location_confidence": "low", "override_involved": false, "score": 0.5424, "shared_row_acres": null}}, {"type": "Feature", "geometry": {"type": "LineString", "coordinates": [[-80.9110158, 32.2562906], [-81.0672826, 32.0447574]]}, "properties": {"overlap_label": "OVL_19", "utility_a": "DESC", "project_id_a": "6808 S", "name_a": "Okatie-Bluffton 115kV: Rebuild", "utility_b": "GPC", "project_id_b": "20067", "name_b": "SAV: DEPTFORD - MAGNOLIA 115KV RECONDUCTOR", "center_distance_mi": 17.24, "closest_distance_km": 24.48, "proximity_tier": "under 25 mi", "in_service_gap_days": 0, "build_windows_overlap": true, "location_confidence": "low", "override_involved": false, "score": 0.5173, "shared_row_acres": null}}, {"type": "Feature", "geometry": {"type": "LineString", "coordinates": [[-82.18049115, 33.6965542], [-82.1822894, 33.60206075]]}, "properties": {"overlap_label": "OVL_20", "utility_a": "DESC", "project_id_a": "6809 G (Hooks Modoc)", "name_a": "Hooks - Modoc 115/46 kV Rebuild", "utility_b": "GPC", "project_id_b": "20793", "name_b": "EVANS PRIMARY - THURMOND DAM (USA) #5 115KV REBUILD", "center_distance_mi": 6.53, "closest_distance_km": 2.94, "proximity_tier": "under 8 km", "in_service_gap_days": 1979, "build_windows_overlap": false, "location_confidence": "medium", "override_involved": false, "score": 0.5172, "shared_row_acres": null}}, {"type": "Feature", "geometry": {"type": "LineString", "coordinates": [[-82.18049115, 33.6965542], [-82.1822894, 33.60206075]]}, "properties": {"overlap_label": "OVL_21", "utility_a": "DESC", "project_id_a": "6809 G (Hooks Modoc)", "name_a": "Hooks - Modoc 115/46 kV Rebuild", "utility_b": "GPC", "project_id_b": "20794", "name_b": "EVANS PRIMARY - THURMOND DAM (USA) #6 115KV REBUILD", "center_distance_mi": 6.53, "closest_distance_km": 2.94, "proximity_tier": "under 8 km", "in_service_gap_days": 1979, "build_windows_overlap": false, "location_confidence": "medium", "override_involved": false, "score": 0.5172, "shared_row_acres": null}}, {"type": "Feature", "geometry": {"type": "LineString", "coordinates": [[-80.968648, 32.277554], [-81.1922924, 32.3004087]]}, "properties": {"overlap_label": "OVL_22", "utility_a": "DESC", "project_id_a": "06367 A - C, H", "name_a": "Riverport Tap: Construct Tap", "utility_b": "GPC", "project_id_b": "20065", "name_b": "SAV: GOSHEN (SAV) - MCINTOSH 115KV LINE REBUILD", "center_distance_mi": 13.16, "closest_distance_km": 20.92, "proximity_tier": "under 25 mi", "in_service_gap_days": 517, "build_windows_overlap": true, "location_confidence": "low", "override_involved": false, "score": 0.4899, "shared_row_acres": null}}, {"type": "Feature", "geometry": {"type": "LineString", "coordinates": [[-80.968648, 32.277554], [-81.17772795, 32.19841825]]}, "properties": {"overlap_label": "OVL_23", "utility_a": "DESC", "project_id_a": "06367 A - C, H", "name_a": "Riverport Tap: Construct Tap", "utility_b": "GPC", "project_id_b": "20785", "name_b": "SAV: GOSHEN (SAV) - KRAFT 115KV LINE REBUILD", "center_distance_mi": 13.39, "closest_distance_km": 21.49, "proximity_tier": "under 25 mi", "in_service_gap_days": 517, "build_windows_overlap": true, "location_confidence": "low", "override_involved": false, "score": 0.4835, "shared_row_acres": null}}, {"type": "Feature", "geometry": {"type": "LineString", "coordinates": [[-80.968648, 32.277554], [-81.0672826, 32.0447574]]}, "properties": {"overlap_label": "OVL_24", "utility_a": "DESC", "project_id_a": "0139 M,N", "name_a": "Okatie 230-115kV Substation, Jasper \u2013 Yemassee 230kV #1 Fold-in", "utility_b": "GPC", "project_id_b": "20067", "name_b": "SAV: DEPTFORD - MAGNOLIA 115KV RECONDUCTOR", "center_distance_mi": 17.09, "closest_distance_km": 24.6, "proximity_tier": "under 25 mi", "in_service_gap_days": 152, "build_windows_overlap": true, "location_confidence": "low", "override_involved": false, "score": 0.4799, "shared_row_acres": null}}, {"type": "Feature", "geometry": {"type": "LineString", "coordinates": [[-80.968648, 32.277554], [-81.0964241, 32.05402935]]}, "properties": {"overlap_label": "OVL_25", "utility_a": "DESC", "project_id_a": "06367 A - C, H", "name_a": "Riverport Tap: Construct Tap", "utility_b": "GPC", "project_id_b": "20066", "name_b": "SAV: BOULEVARD - DEPTFORD 115KV RECONDUCTOR", "center_distance_mi": 17.16, "closest_distance_km": 24.6, "proximity_tier": "under 25 mi", "in_service_gap_days": 152, "build_windows_overlap": true, "location_confidence": "low", "override_involved": false, "score": 0.478, "shared_row_acres": null}}, {"type": "Feature", "geometry": {"type": "LineString", "coordinates": [[-81.910981, 33.45328635], [-81.9953118, 33.3197599]]}, "properties": {"overlap_label": "OVL_26", "utility_a": "DESC", "project_id_a": "6810 O", "name_a": "Urquhart \u2013 Aiken PSA 46 kV: Rebuild", "utility_b": "GPC", "project_id_b": "21116", "name_b": "GOSHEN AREA STRATEGIC SOLUTION", "center_distance_mi": 10.43, "closest_distance_km": 14.95, "proximity_tier": "under 25 mi", "in_service_gap_days": 883, "build_windows_overlap": true, "location_confidence": "low", "override_involved": true, "score": 0.466, "shared_row_acres": null}}, {"type": "Feature", "geometry": {"type": "LineString", "coordinates": [[-80.968648, 32.277554], [-81.0672826, 32.0447574]]}, "properties": {"overlap_label": "OVL_27", "utility_a": "DESC", "project_id_a": "06367 A - C, H", "name_a": "Riverport Tap: Construct Tap", "utility_b": "GPC", "project_id_b": "20067", "name_b": "SAV: DEPTFORD - MAGNOLIA 115KV RECONDUCTOR", "center_distance_mi": 17.09, "closest_distance_km": 24.6, "proximity_tier": "under 25 mi", "in_service_gap_days": 213, "build_windows_overlap": true, "location_confidence": "low", "override_involved": false, "score": 0.4632, "shared_row_acres": null}}, {"type": "Feature", "geometry": {"type": "LineString", "coordinates": [[-82.1054199, 33.60970965], [-81.9498935, 33.451642]]}, "properties": {"overlap_label": "OVL_28", "utility_a": "DESC", "project_id_a": "6809 E", "name_a": "Stevens Creek - Hooks 115kV/LR Plumb Branch 46kV Rebuilds", "utility_b": "GPC", "project_id_b": "16007", "name_b": "FENWICK STREET - SAND BAR FERRY 115KV (RECONDUCTOR/REBUILD)", "center_distance_mi": 14.13, "closest_distance_km": 13.88, "proximity_tier": "under 25 mi", "in_service_gap_days": 517, "build_windows_overlap": true, "location_confidence": "low", "override_involved": false, "score": 0.4629, "shared_row_acres": null}}, {"type": "Feature", "geometry": {"type": "LineString", "coordinates": [[-81.07188, 32.314835], [-81.20781715, 32.0956148]]}, "properties": {"overlap_label": "OVL_29", "utility_a": "DESC", "project_id_a": "6888", "name_a": "Okatie \u2013 McIntosh 115kV Tie: Add Series Reactor", "utility_b": "GPC", "project_id_b": "20783", "name_b": "SAV: COLEMAN - DEAN FOREST 115KV LINE REBUILD", "center_distance_mi": 17.11, "closest_distance_km": 26.91, "proximity_tier": "under 25 mi", "in_service_gap_days": 213, "build_windows_overlap": true, "location_confidence": "low", "override_involved": false, "score": 0.4627, "shared_row_acres": null}}, {"type": "Feature", "geometry": {"type": "LineString", "coordinates": [[-81.9279339, 33.57301795], [-81.9498935, 33.451642]]}, "properties": {"overlap_label": "OVL_30", "utility_a": "DESC", "project_id_a": "6809 T", "name_a": "Stevens Creek - Graniteville 115 kV: Rebuild", "utility_b": "GPC", "project_id_b": "16007", "name_b": "FENWICK STREET - SAND BAR FERRY 115KV (RECONDUCTOR/REBUILD)", "center_distance_mi": 8.48, "closest_distance_km": 12.08, "proximity_tier": "under 25 mi", "in_service_gap_days": 1309, "build_windows_overlap": false, "location_confidence": "low", "override_involved": false, "score": 0.4625, "shared_row_acres": null}}, {"type": "Feature", "geometry": {"type": "LineString", "coordinates": [[-81.9279339, 33.57301795], [-81.9953118, 33.3197599]]}, "properties": {"overlap_label": "OVL_31", "utility_a": "DESC", "project_id_a": "6809 T", "name_a": "Stevens Creek - Graniteville 115 kV: Rebuild", "utility_b": "GPC", "project_id_b": "21116", "name_b": "GOSHEN AREA STRATEGIC SOLUTION", "center_distance_mi": 17.92, "closest_distance_km": 27.39, "proximity_tier": "under 25 mi", "in_service_gap_days": 152, "build_windows_overlap": true, "location_confidence": "low", "override_involved": true, "score": 0.4565, "shared_row_acres": null}}, {"type": "Feature", "geometry": {"type": "LineString", "coordinates": [[-81.0466238, 32.3183371], [-81.0964241, 32.05402935]]}, "properties": {"overlap_label": "OVL_32", "utility_a": "DESC", "project_id_a": "06367 D - G", "name_a": "Jasper \u2013 Okatie 230 kV #2: Construct", "utility_b": "GPC", "project_id_b": "20066", "name_b": "SAV: BOULEVARD - DEPTFORD 115KV RECONDUCTOR", "center_distance_mi": 18.49, "closest_distance_km": 24.6, "proximity_tier": "under 25 mi", "in_service_gap_days": 152, "build_windows_overlap": true, "location_confidence": "low", "override_involved": false, "score": 0.4406, "shared_row_acres": null}}, {"type": "Feature", "geometry": {"type": "LineString", "coordinates": [[-81.0466238, 32.3183371], [-81.0672826, 32.0447574]]}, "properties": {"overlap_label": "OVL_33", "utility_a": "DESC", "project_id_a": "06367 D - G", "name_a": "Jasper \u2013 Okatie 230 kV #2: Construct", "utility_b": "GPC", "project_id_b": "20067", "name_b": "SAV: DEPTFORD - MAGNOLIA 115KV RECONDUCTOR", "center_distance_mi": 18.94, "closest_distance_km": 24.6, "proximity_tier": "under 25 mi", "in_service_gap_days": 213, "build_windows_overlap": true, "location_confidence": "low", "override_involved": false, "score": 0.4113, "shared_row_acres": null}}, {"type": "Feature", "geometry": {"type": "LineString", "coordinates": [[-81.07188, 32.314835], [-81.1153222, 32.03195885]]}, "properties": {"overlap_label": "OVL_34", "utility_a": "DESC", "project_id_a": "6888", "name_a": "Okatie \u2013 McIntosh 115kV Tie: Add Series Reactor", "utility_b": "GPC", "project_id_b": "21006", "name_b": "SAV: BOULEVARD - MAGNOLIA 115 KV LINE REBUILD", "center_distance_mi": 19.71, "closest_distance_km": 30.42, "proximity_tier": "under 25 mi", "in_service_gap_days": 152, "build_windows_overlap": true, "location_confidence": "low", "override_involved": false, "score": 0.4065, "shared_row_acres": null}}, {"type": "Feature", "geometry": {"type": "LineString", "coordinates": [[-80.9110158, 32.2562906], [-81.0964241, 32.05402935]]}, "properties": {"overlap_label": "OVL_35", "utility_a": "DESC", "project_id_a": "6808 S", "name_a": "Okatie-Bluffton 115kV: Rebuild", "utility_b": "GPC", "project_id_b": "20066", "name_b": "SAV: BOULEVARD - DEPTFORD 115KV RECONDUCTOR", "center_distance_mi": 17.69, "closest_distance_km": 24.48, "proximity_tier": "under 25 mi", "in_service_gap_days": 365, "build_windows_overlap": true, "location_confidence": "low", "override_involved": false, "score": 0.4047, "shared_row_acres": null}}, {"type": "Feature", "geometry": {"type": "LineString", "coordinates": [[-80.968648, 32.277554], [-81.1922924, 32.3004087]]}, "properties": {"overlap_label": "OVL_36", "utility_a": "DESC", "project_id_a": "0139 M,N", "name_a": "Okatie 230-115kV Substation, Jasper \u2013 Yemassee 230kV #1 Fold-in", "utility_b": "GPC", "project_id_b": "20065", "name_b": "SAV: GOSHEN (SAV) - MCINTOSH 115KV LINE REBUILD", "center_distance_mi": 13.16, "closest_distance_km": 20.92, "proximity_tier": "under 25 mi", "in_service_gap_days": 882, "build_windows_overlap": true, "location_confidence": "low", "override_involved": false, "score": 0.3899, "shared_row_acres": null}}, {"type": "Feature", "geometry": {"type": "LineString", "coordinates": [[-80.968648, 32.277554], [-81.17772795, 32.19841825]]}, "properties": {"overlap_label": "OVL_37", "utility_a": "DESC", "project_id_a": "0139 M,N", "name_a": "Okatie 230-115kV Substation, Jasper \u2013 Yemassee 230kV #1 Fold-in", "utility_b": "GPC", "project_id_b": "20785", "name_b": "SAV: GOSHEN (SAV) - KRAFT 115KV LINE REBUILD", "center_distance_mi": 13.39, "closest_distance_km": 21.49, "proximity_tier": "under 25 mi", "in_service_gap_days": 882, "build_windows_overlap": true, "location_confidence": "low", "override_involved": false, "score": 0.3835, "shared_row_acres": null}}, {"type": "Feature", "geometry": {"type": "LineString", "coordinates": [[-81.07188, 32.314835], [-81.2209368, 32.0451478]]}, "properties": {"overlap_label": "OVL_38", "utility_a": "DESC", "project_id_a": "6888", "name_a": "Okatie \u2013 McIntosh 115kV Tie: Add Series Reactor", "utility_b": "GPC", "project_id_b": "21023", "name_b": "SAV: DEAN FOREST - LITTLE OGEECHEE 230 KV REBUILD", "center_distance_mi": 20.57, "closest_distance_km": 27.98, "proximity_tier": "under 25 mi", "in_service_gap_days": 152, "build_windows_overlap": true, "location_confidence": "low", "override_involved": false, "score": 0.3824, "shared_row_acres": null}}, {"type": "Feature", "geometry": {"type": "LineString", "coordinates": [[-80.968648, 32.277554], [-81.0964241, 32.05402935]]}, "properties": {"overlap_label": "OVL_39", "utility_a": "DESC", "project_id_a": "0139 M,N", "name_a": "Okatie 230-115kV Substation, Jasper \u2013 Yemassee 230kV #1 Fold-in", "utility_b": "GPC", "project_id_b": "20066", "name_b": "SAV: BOULEVARD - DEPTFORD 115KV RECONDUCTOR", "center_distance_mi": 17.16, "closest_distance_km": 24.6, "proximity_tier": "under 25 mi", "in_service_gap_days": 517, "build_windows_overlap": true, "location_confidence": "low", "override_involved": false, "score": 0.378, "shared_row_acres": null}}, {"type": "Feature", "geometry": {"type": "LineString", "coordinates": [[-81.07188, 32.314835], [-81.0861807, 32.0226869]]}, "properties": {"overlap_label": "OVL_40", "utility_a": "DESC", "project_id_a": "6888", "name_a": "Okatie \u2013 McIntosh 115kV Tie: Add Series Reactor", "utility_b": "GPC", "project_id_b": "20407", "name_b": "SAV: MAGNOLIA - TRUMAN PARKWAY 115KV REBUILD", "center_distance_mi": 20.2, "closest_distance_km": 30.42, "proximity_tier": "under 25 mi", "in_service_gap_days": 213, "build_windows_overlap": true, "location_confidence": "low", "override_involved": false, "score": 0.376, "shared_row_acres": null}}, {"type": "Feature", "geometry": {"type": "LineString", "coordinates": [[-80.9110158, 32.2562906], [-81.17772795, 32.19841825]]}, "properties": {"overlap_label": "OVL_41", "utility_a": "DESC", "project_id_a": "6808 S", "name_a": "Okatie-Bluffton 115kV: Rebuild", "utility_b": "GPC", "project_id_b": "20785", "name_b": "SAV: GOSHEN (SAV) - KRAFT 115KV LINE REBUILD", "center_distance_mi": 16.09, "closest_distance_km": 21.49, "proximity_tier": "under 25 mi", "in_service_gap_days": 730, "build_windows_overlap": true, "location_confidence": "low", "override_involved": false, "score": 0.3494, "shared_row_acres": null}}, {"type": "Feature", "geometry": {"type": "LineString", "coordinates": [[-82.17770435, 33.65847365], [-82.29143355, 33.4989746]]}, "properties": {"overlap_label": "OVL_42", "utility_a": "DESC", "project_id_a": "6810 A", "name_a": "Hooks - Thurmond 115kV Tie: Rebuild", "utility_b": "GPC", "project_id_b": "17993", "name_b": "EVANS PRIMARY - THOMSON PRIMARY 115KV REBUILD", "center_distance_mi": 12.82, "closest_distance_km": 12.57, "proximity_tier": "under 25 mi", "in_service_gap_days": 3652, "build_windows_overlap": false, "location_confidence": "medium", "override_involved": false, "score": 0.3411, "shared_row_acres": null}}, {"type": "Feature", "geometry": {"type": "LineString", "coordinates": [[-80.9110158, 32.2562906], [-81.1922924, 32.3004087]]}, "properties": {"overlap_label": "OVL_43", "utility_a": "DESC", "project_id_a": "6808 S", "name_a": "Okatie-Bluffton 115kV: Rebuild", "utility_b": "GPC", "project_id_b": "20065", "name_b": "SAV: GOSHEN (SAV) - MCINTOSH 115KV LINE REBUILD", "center_distance_mi": 16.71, "closest_distance_km": 20.92, "proximity_tier": "under 25 mi", "in_service_gap_days": 730, "build_windows_overlap": true, "location_confidence": "low", "override_involved": false, "score": 0.3321, "shared_row_acres": null}}, {"type": "Feature", "geometry": {"type": "LineString", "coordinates": [[-82.1054199, 33.60970965], [-82.29143355, 33.4989746]]}, "properties": {"overlap_label": "OVL_44", "utility_a": "DESC", "project_id_a": "6809 G", "name_a": "Stevens Creek - Hooks 115kV/LR Plumb Branch 46kV", "utility_b": "GPC", "project_id_b": "17993", "name_b": "EVANS PRIMARY - THOMSON PRIMARY 115KV REBUILD", "center_distance_mi": 13.16, "closest_distance_km": 9.29, "proximity_tier": "under 25 mi", "in_service_gap_days": 3287, "build_windows_overlap": false, "location_confidence": "low", "override_involved": false, "score": 0.3314, "shared_row_acres": null}}, {"type": "Feature", "geometry": {"type": "LineString", "coordinates": [[-82.1054199, 33.60970965], [-82.29143355, 33.4989746]]}, "properties": {"overlap_label": "OVL_45", "utility_a": "DESC", "project_id_a": "6809 E", "name_a": "Stevens Creek - Hooks 115kV/LR Plumb Branch 46kV Rebuilds", "utility_b": "GPC", "project_id_b": "17993", "name_b": "EVANS PRIMARY - THOMSON PRIMARY 115KV REBUILD", "center_distance_mi": 13.16, "closest_distance_km": 9.29, "proximity_tier": "under 25 mi", "in_service_gap_days": 3652, "build_windows_overlap": false, "location_confidence": "low", "override_involved": false, "score": 0.3314, "shared_row_acres": null}}, {"type": "Feature", "geometry": {"type": "LineString", "coordinates": [[-82.17770435, 33.65847365], [-81.9498935, 33.451642]]}, "properties": {"overlap_label": "OVL_46", "utility_a": "DESC", "project_id_a": "6810 A", "name_a": "Hooks - Thurmond 115kV Tie: Rebuild", "utility_b": "GPC", "project_id_b": "16007", "name_b": "FENWICK STREET - SAND BAR FERRY 115KV (RECONDUCTOR/REBUILD)", "center_distance_mi": 19.4, "closest_distance_km": 28.3, "proximity_tier": "under 25 mi", "in_service_gap_days": 517, "build_windows_overlap": true, "location_confidence": "low", "override_involved": false, "score": 0.3152, "shared_row_acres": null}}, {"type": "Feature", "geometry": {"type": "LineString", "coordinates": [[-81.0466238, 32.3183371], [-81.2531513, 32.0067859]]}, "properties": {"overlap_label": "OVL_47", "utility_a": "DESC", "project_id_a": "06367 D - G", "name_a": "Jasper \u2013 Okatie 230 kV #2: Construct", "utility_b": "GPC", "project_id_b": "17075", "name_b": "SAV: LITTLE OGEECHEE 230- 115KV: RELAY MODERNIZATION", "center_distance_mi": 24.68, "closest_distance_km": 39.69, "proximity_tier": "under 25 mi", "in_service_gap_days": 0, "build_windows_overlap": true, "location_confidence": "low", "override_involved": false, "score": 0.3088, "shared_row_acres": null}}, {"type": "Feature", "geometry": {"type": "LineString", "coordinates": [[-80.7210159, 32.4364883], [-81.1032782, 32.3439591]]}, "properties": {"overlap_label": "OVL_48", "utility_a": "DESC", "project_id_a": "6808 L", "name_a": "Burton-St Helena 115kV: Frogmore Distribution - St Helena", "utility_b": "GPC", "project_id_b": "20277", "name_b": "SAV: MCINTOSH - PURRYSBURG 230KV REACTORS", "center_distance_mi": 23.2, "closest_distance_km": 31.23, "proximity_tier": "under 25 mi", "in_service_gap_days": 152, "build_windows_overlap": true, "location_confidence": "low", "override_involved": false, "score": 0.3087, "shared_row_acres": null}}, {"type": "Feature", "geometry": {"type": "LineString", "coordinates": [[-80.968648, 32.277554], [-81.368377, 32.1552821]]}, "properties": {"overlap_label": "OVL_49", "utility_a": "DESC", "project_id_a": "0139 M,N", "name_a": "Okatie 230-115kV Substation, Jasper \u2013 Yemassee 230kV #1 Fold-in", "utility_b": "GPC", "project_id_b": "19523", "name_b": "SAV: CC - HYUNDAI MOTORS SAVANNAH AKA. PROJECT EA", "center_distance_mi": 24.85, "closest_distance_km": 39.99, "proximity_tier": "under 25 mi", "in_service_gap_days": 1, "build_windows_overlap": true, "location_confidence": "low", "override_involved": true, "score": 0.304, "shared_row_acres": null}}, {"type": "Feature", "geometry": {"type": "LineString", "coordinates": [[-81.0466238, 32.3183371], [-81.368377, 32.1552821]]}, "properties": {"overlap_label": "OVL_50", "utility_a": "DESC", "project_id_a": "06367 D - G", "name_a": "Jasper \u2013 Okatie 230 kV #2: Construct", "utility_b": "GPC", "project_id_b": "19523", "name_b": "SAV: CC - HYUNDAI MOTORS SAVANNAH AKA. PROJECT EA", "center_distance_mi": 21.92, "closest_distance_km": 32.24, "proximity_tier": "under 25 mi", "in_service_gap_days": 364, "build_windows_overlap": true, "location_confidence": "low", "override_involved": true, "score": 0.2865, "shared_row_acres": null}}, {"type": "Feature", "geometry": {"type": "LineString", "coordinates": [[-81.9279339, 33.57301795], [-82.1822894, 33.60206075]]}, "properties": {"overlap_label": "OVL_51", "utility_a": "DESC", "project_id_a": "6809 T", "name_a": "Stevens Creek - Graniteville 115 kV: Rebuild", "utility_b": "GPC", "project_id_b": "20793", "name_b": "EVANS PRIMARY - THURMOND DAM (USA) #5 115KV REBUILD", "center_distance_mi": 14.78, "closest_distance_km": 11.06, "proximity_tier": "under 25 mi", "in_service_gap_days": 1248, "build_windows_overlap": true, "location_confidence": "high", "override_involved": false, "score": 0.2862, "shared_row_acres": null}}, {"type": "Feature", "geometry": {"type": "LineString", "coordinates": [[-81.9279339, 33.57301795], [-82.1822894, 33.60206075]]}, "properties": {"overlap_label": "OVL_52", "utility_a": "DESC", "project_id_a": "6809 T", "name_a": "Stevens Creek - Graniteville 115 kV: Rebuild", "utility_b": "GPC", "project_id_b": "20794", "name_b": "EVANS PRIMARY - THURMOND DAM (USA) #6 115KV REBUILD", "center_distance_mi": 14.78, "closest_distance_km": 11.06, "proximity_tier": "under 25 mi", "in_service_gap_days": 1248, "build_windows_overlap": false, "location_confidence": "high", "override_involved": false, "score": 0.2862, "shared_row_acres": null}}, {"type": "Feature", "geometry": {"type": "LineString", "coordinates": [[-82.18049115, 33.6965542], [-82.29143355, 33.4989746]]}, "properties": {"overlap_label": "OVL_53", "utility_a": "DESC", "project_id_a": "6809 G (Hooks Modoc)", "name_a": "Hooks - Modoc 115/46 kV Rebuild", "utility_b": "GPC", "project_id_b": "17993", "name_b": "EVANS PRIMARY - THOMSON PRIMARY 115KV REBUILD", "center_distance_mi": 15.07, "closest_distance_km": 12.57, "proximity_tier": "under 25 mi", "in_service_gap_days": 2557, "build_windows_overlap": false, "location_confidence": "medium", "override_involved": false, "score": 0.278, "shared_row_acres": null}}, {"type": "Feature", "geometry": {"type": "LineString", "coordinates": [[-81.0466238, 32.3183371], [-81.2531513, 32.0067859]]}, "properties": {"overlap_label": "OVL_54", "utility_a": "DESC", "project_id_a": "06367 D - G", "name_a": "Jasper \u2013 Okatie 230 kV #2: Construct", "utility_b": "GPC", "project_id_b": "19966", "name_b": "SAV: CC - BIG OGEECHEE 500/230KV (CC NETWORK IMPROVEMENTS)", "center_distance_mi": 24.68, "closest_distance_km": 39.69, "proximity_tier": "under 25 mi", "in_service_gap_days": 152, "build_windows_overlap": true, "location_confidence": "low", "override_involved": true, "score": 0.2672, "shared_row_acres": null}}, {"type": "Feature", "geometry": {"type": "LineString", "coordinates": [[-82.24715405, 33.82141225], [-82.1822894, 33.60206075]]}, "properties": {"overlap_label": "OVL_55", "utility_a": "DESC", "project_id_a": "6809 M (Modoc Mccormick)", "name_a": "Modoc \u2013 McCormick 115/46 kV Rebuild", "utility_b": "GPC", "project_id_b": "20794", "name_b": "EVANS PRIMARY - THURMOND DAM (USA) #6 115KV REBUILD", "center_distance_mi": 15.61, "closest_distance_km": 8.48, "proximity_tier": "under 25 mi", "in_service_gap_days": 1248, "build_windows_overlap": false, "location_confidence": "high", "override_involved": false, "score": 0.263, "shared_row_acres": null}}, {"type": "Feature", "geometry": {"type": "LineString", "coordinates": [[-82.24715405, 33.82141225], [-82.1822894, 33.60206075]]}, "properties": {"overlap_label": "OVL_56", "utility_a": "DESC", "project_id_a": "6809 M (Modoc Mccormick)", "name_a": "Modoc \u2013 McCormick 115/46 kV Rebuild", "utility_b": "GPC", "project_id_b": "20793", "name_b": "EVANS PRIMARY - THURMOND DAM (USA) #5 115KV REBUILD", "center_distance_mi": 15.61, "closest_distance_km": 8.48, "proximity_tier": "under 25 mi", "in_service_gap_days": 1248, "build_windows_overlap": true, "location_confidence": "high", "override_involved": false, "score": 0.263, "shared_row_acres": null}}, {"type": "Feature", "geometry": {"type": "LineString", "coordinates": [[-81.0466238, 32.3183371], [-81.20781715, 32.0956148]]}, "properties": {"overlap_label": "OVL_57", "utility_a": "DESC", "project_id_a": "06367 D - G", "name_a": "Jasper \u2013 Okatie 230 kV #2: Construct", "utility_b": "GPC", "project_id_b": "20783", "name_b": "SAV: COLEMAN - DEAN FOREST 115KV LINE REBUILD", "center_distance_mi": 18.04, "closest_distance_km": 28.84, "proximity_tier": "under 25 mi", "in_service_gap_days": 883, "build_windows_overlap": true, "location_confidence": "low", "override_involved": false, "score": 0.2528, "shared_row_acres": null}}, {"type": "Feature", "geometry": {"type": "LineString", "coordinates": [[-81.7892681, 33.4840049], [-81.9953118, 33.3197599]]}, "properties": {"overlap_label": "OVL_58", "utility_a": "DESC", "project_id_a": "6852", "name_a": "Urquhart \u2013 Toolebeck 115kV line: Rebuild", "utility_b": "GPC", "project_id_b": "21116", "name_b": "GOSHEN AREA STRATEGIC SOLUTION", "center_distance_mi": 16.43, "closest_distance_km": 14.95, "proximity_tier": "under 25 mi", "in_service_gap_days": 1389, "build_windows_overlap": true, "location_confidence": "low", "override_involved": true, "score": 0.2399, "shared_row_acres": null}}, {"type": "Feature", "geometry": {"type": "LineString", "coordinates": [[-82.18049115, 33.6965542], [-81.9498935, 33.451642]]}, "properties": {"overlap_label": "OVL_59", "utility_a": "DESC", "project_id_a": "6809 G (Hooks Modoc)", "name_a": "Hooks - Modoc 115/46 kV Rebuild", "utility_b": "GPC", "project_id_b": "16007", "name_b": "FENWICK STREET - SAND BAR FERRY 115KV (RECONDUCTOR/REBUILD)", "center_distance_mi": 21.51, "closest_distance_km": 28.3, "proximity_tier": "under 25 mi", "in_service_gap_days": 578, "build_windows_overlap": false, "location_confidence": "low", "override_involved": false, "score": 0.2394, "shared_row_acres": null}}, {"type": "Feature", "geometry": {"type": "LineString", "coordinates": [[-81.07188, 32.314835], [-81.0964241, 32.05402935]]}, "properties": {"overlap_label": "OVL_60", "utility_a": "DESC", "project_id_a": "6888", "name_a": "Okatie \u2013 McIntosh 115kV Tie: Add Series Reactor", "utility_b": "GPC", "project_id_b": "20066", "name_b": "SAV: BOULEVARD - DEPTFORD 115KV RECONDUCTOR", "center_distance_mi": 18.08, "closest_distance_km": 24.6, "proximity_tier": "under 25 mi", "in_service_gap_days": 944, "build_windows_overlap": false, "location_confidence": "low", "override_involved": false, "score": 0.2352, "shared_row_acres": null}}, {"type": "Feature", "geometry": {"type": "LineString", "coordinates": [[-80.968648, 32.277554], [-81.20781715, 32.0956148]]}, "properties": {"overlap_label": "OVL_61", "utility_a": "DESC", "project_id_a": "06367 A - C, H", "name_a": "Riverport Tap: Construct Tap", "utility_b": "GPC", "project_id_b": "20783", "name_b": "SAV: COLEMAN - DEAN FOREST 115KV LINE REBUILD", "center_distance_mi": 18.8, "closest_distance_km": 29.91, "proximity_tier": "under 25 mi", "in_service_gap_days": 883, "build_windows_overlap": true, "location_confidence": "low", "override_involved": false, "score": 0.2316, "shared_row_acres": null}}, {"type": "Feature", "geometry": {"type": "LineString", "coordinates": [[-80.968648, 32.277554], [-81.0861807, 32.0226869]]}, "properties": {"overlap_label": "OVL_62", "utility_a": "DESC", "project_id_a": "06367 A - C, H", "name_a": "Riverport Tap: Construct Tap", "utility_b": "GPC", "project_id_b": "20407", "name_b": "SAV: MAGNOLIA - TRUMAN PARKWAY 115KV REBUILD", "center_distance_mi": 18.9, "closest_distance_km": 30.42, "proximity_tier": "under 25 mi", "in_service_gap_days": 883, "build_windows_overlap": true, "location_confidence": "low", "override_involved": false, "score": 0.2288, "shared_row_acres": null}}, {"type": "Feature", "geometry": {"type": "LineString", "coordinates": [[-80.7210159, 32.4364883], [-81.1032782, 32.3439591]]}, "properties": {"overlap_label": "OVL_63", "utility_a": "DESC", "project_id_a": "6808 K", "name_a": "Burton-St Helena 115kV: Rebuild Burton-Frogmore Transmission Section", "utility_b": "GPC", "project_id_b": "20277", "name_b": "SAV: MCINTOSH - PURRYSBURG 230KV REACTORS", "center_distance_mi": 23.2, "closest_distance_km": 31.23, "proximity_tier": "under 25 mi", "in_service_gap_days": 517, "build_windows_overlap": true, "location_confidence": "low", "override_involved": false, "score": 0.2087, "shared_row_acres": null}}, {"type": "Feature", "geometry": {"type": "LineString", "coordinates": [[-80.968648, 32.277554], [-81.368377, 32.1552821]]}, "properties": {"overlap_label": "OVL_64", "utility_a": "DESC", "project_id_a": "06367 A - C, H", "name_a": "Riverport Tap: Construct Tap", "utility_b": "GPC", "project_id_b": "19523", "name_b": "SAV: CC - HYUNDAI MOTORS SAVANNAH AKA. PROJECT EA", "center_distance_mi": 24.85, "closest_distance_km": 39.99, "proximity_tier": "under 25 mi", "in_service_gap_days": 364, "build_windows_overlap": true, "location_confidence": "low", "override_involved": true, "score": 0.2046, "shared_row_acres": null}}, {"type": "Feature", "geometry": {"type": "LineString", "coordinates": [[-81.07188, 32.314835], [-81.2976445, 32.131501]]}, "properties": {"overlap_label": "OVL_65", "utility_a": "DESC", "project_id_a": "6888", "name_a": "Okatie \u2013 McIntosh 115kV Tie: Add Series Reactor", "utility_b": "GPC", "project_id_b": "20784", "name_b": "SAV: COLEMAN - MELDRIM 115KV LINE REBUILD", "center_distance_mi": 18.29, "closest_distance_km": 26.91, "proximity_tier": "under 25 mi", "in_service_gap_days": 1248, "build_windows_overlap": false, "location_confidence": "low", "override_involved": false, "score": 0.1878, "shared_row_acres": null}}, {"type": "Feature", "geometry": {"type": "LineString", "coordinates": [[-81.0466238, 32.3183371], [-81.0861807, 32.0226869]]}, "properties": {"overlap_label": "OVL_66", "utility_a": "DESC", "project_id_a": "06367 D - G", "name_a": "Jasper \u2013 Okatie 230 kV #2: Construct", "utility_b": "GPC", "project_id_b": "20407", "name_b": "SAV: MAGNOLIA - TRUMAN PARKWAY 115KV REBUILD", "center_distance_mi": 20.56, "closest_distance_km": 30.42, "proximity_tier": "under 25 mi", "in_service_gap_days": 883, "build_windows_overlap": true, "location_confidence": "low", "override_involved": false, "score": 0.1825, "shared_row_acres": null}}, {"type": "Feature", "geometry": {"type": "LineString", "coordinates": [[-81.07188, 32.314835], [-81.0672826, 32.0447574]]}, "properties": {"overlap_label": "OVL_67", "utility_a": "DESC", "project_id_a": "6888", "name_a": "Okatie \u2013 McIntosh 115kV Tie: Add Series Reactor", "utility_b": "GPC", "project_id_b": "20067", "name_b": "SAV: DEPTFORD - MAGNOLIA 115KV RECONDUCTOR", "center_distance_mi": 18.66, "closest_distance_km": 24.6, "proximity_tier": "under 25 mi", "in_service_gap_days": 1309, "build_windows_overlap": false, "location_confidence": "low", "override_involved": false, "score": 0.1774, "shared_row_acres": null}}, {"type": "Feature", "geometry": {"type": "LineString", "coordinates": [[-81.910981, 33.45328635], [-82.1822894, 33.60206075]]}, "properties": {"overlap_label": "OVL_68", "utility_a": "DESC", "project_id_a": "6810 O", "name_a": "Urquhart \u2013 Aiken PSA 46 kV: Rebuild", "utility_b": "GPC", "project_id_b": "20794", "name_b": "EVANS PRIMARY - THURMOND DAM (USA) #6 115KV REBUILD", "center_distance_mi": 18.7, "closest_distance_km": 25.0, "proximity_tier": "under 25 mi", "in_service_gap_days": 1979, "build_windows_overlap": false, "location_confidence": "medium", "override_involved": false, "score": 0.1763, "shared_row_acres": null}}, {"type": "Feature", "geometry": {"type": "LineString", "coordinates": [[-81.910981, 33.45328635], [-82.1822894, 33.60206075]]}, "properties": {"overlap_label": "OVL_69", "utility_a": "DESC", "project_id_a": "6810 O", "name_a": "Urquhart \u2013 Aiken PSA 46 kV: Rebuild", "utility_b": "GPC", "project_id_b": "20793", "name_b": "EVANS PRIMARY - THURMOND DAM (USA) #5 115KV REBUILD", "center_distance_mi": 18.7, "closest_distance_km": 25.0, "proximity_tier": "under 25 mi", "in_service_gap_days": 1979, "build_windows_overlap": false, "location_confidence": "medium", "override_involved": false, "score": 0.1763, "shared_row_acres": null}}, {"type": "Feature", "geometry": {"type": "LineString", "coordinates": [[-80.968648, 32.277554], [-81.20781715, 32.0956148]]}, "properties": {"overlap_label": "OVL_70", "utility_a": "DESC", "project_id_a": "0139 M,N", "name_a": "Okatie 230-115kV Substation, Jasper \u2013 Yemassee 230kV #1 Fold-in", "utility_b": "GPC", "project_id_b": "20783", "name_b": "SAV: COLEMAN - DEAN FOREST 115KV LINE REBUILD", "center_distance_mi": 18.8, "closest_distance_km": 29.91, "proximity_tier": "under 25 mi", "in_service_gap_days": 1248, "build_windows_overlap": true, "location_confidence": "low", "override_involved": false, "score": 0.1735, "shared_row_acres": null}}, {"type": "Feature", "geometry": {"type": "LineString", "coordinates": [[-80.968648, 32.277554], [-81.0861807, 32.0226869]]}, "properties": {"overlap_label": "OVL_71", "utility_a": "DESC", "project_id_a": "0139 M,N", "name_a": "Okatie 230-115kV Substation, Jasper \u2013 Yemassee 230kV #1 Fold-in", "utility_b": "GPC", "project_id_b": "20407", "name_b": "SAV: MAGNOLIA - TRUMAN PARKWAY 115KV REBUILD", "center_distance_mi": 18.9, "closest_distance_km": 30.42, "proximity_tier": "under 25 mi", "in_service_gap_days": 1248, "build_windows_overlap": true, "location_confidence": "low", "override_involved": false, "score": 0.1707, "shared_row_acres": null}}, {"type": "Feature", "geometry": {"type": "LineString", "coordinates": [[-80.968648, 32.277554], [-81.1153222, 32.03195885]]}, "properties": {"overlap_label": "OVL_72", "utility_a": "DESC", "project_id_a": "0139 M,N", "name_a": "Okatie 230-115kV Substation, Jasper \u2013 Yemassee 230kV #1 Fold-in", "utility_b": "GPC", "project_id_b": "21006", "name_b": "SAV: BOULEVARD - MAGNOLIA 115 KV LINE REBUILD", "center_distance_mi": 19.01, "closest_distance_km": 30.42, "proximity_tier": "under 25 mi", "in_service_gap_days": 1613, "build_windows_overlap": false, "location_confidence": "low", "override_involved": false, "score": 0.1676, "shared_row_acres": null}}, {"type": "Feature", "geometry": {"type": "LineString", "coordinates": [[-80.968648, 32.277554], [-81.1153222, 32.03195885]]}, "properties": {"overlap_label": "OVL_73", "utility_a": "DESC", "project_id_a": "06367 A - C, H", "name_a": "Riverport Tap: Construct Tap", "utility_b": "GPC", "project_id_b": "21006", "name_b": "SAV: BOULEVARD - MAGNOLIA 115 KV LINE REBUILD", "center_distance_mi": 19.01, "closest_distance_km": 30.42, "proximity_tier": "under 25 mi", "in_service_gap_days": 1248, "build_windows_overlap": false, "location_confidence": "low", "override_involved": false, "score": 0.1676, "shared_row_acres": null}}, {"type": "Feature", "geometry": {"type": "LineString", "coordinates": [[-80.9110158, 32.2562906], [-81.0861807, 32.0226869]]}, "properties": {"overlap_label": "OVL_74", "utility_a": "DESC", "project_id_a": "6808 S", "name_a": "Okatie-Bluffton 115kV: Rebuild", "utility_b": "GPC", "project_id_b": "20407", "name_b": "SAV: MAGNOLIA - TRUMAN PARKWAY 115KV REBUILD", "center_distance_mi": 19.12, "closest_distance_km": 30.4, "proximity_tier": "under 25 mi", "in_service_gap_days": 1096, "build_windows_overlap": true, "location_confidence": "low", "override_involved": false, "score": 0.1647, "shared_row_acres": null}}, {"type": "Feature", "geometry": {"type": "LineString", "coordinates": [[-81.0466238, 32.3183371], [-81.2976445, 32.131501]]}, "properties": {"overlap_label": "OVL_75", "utility_a": "DESC", "project_id_a": "06367 D - G", "name_a": "Jasper \u2013 Okatie 230 kV #2: Construct", "utility_b": "GPC", "project_id_b": "20784", "name_b": "SAV: COLEMAN - MELDRIM 115KV LINE REBUILD", "center_distance_mi": 19.54, "closest_distance_km": 28.84, "proximity_tier": "under 25 mi", "in_service_gap_days": 2344, "build_windows_overlap": false, "location_confidence": "low", "override_involved": false, "score": 0.1528, "shared_row_acres": null}}, {"type": "Feature", "geometry": {"type": "LineString", "coordinates": [[-80.9110158, 32.2562906], [-81.1153222, 32.03195885]]}, "properties": {"overlap_label": "OVL_76", "utility_a": "DESC", "project_id_a": "6808 S", "name_a": "Okatie-Bluffton 115kV: Rebuild", "utility_b": "GPC", "project_id_b": "21006", "name_b": "SAV: BOULEVARD - MAGNOLIA 115 KV LINE REBUILD", "center_distance_mi": 19.57, "closest_distance_km": 30.4, "proximity_tier": "under 25 mi", "in_service_gap_days": 1461, "build_windows_overlap": false, "location_confidence": "low", "override_involved": false, "score": 0.152, "shared_row_acres": null}}, {"type": "Feature", "geometry": {"type": "LineString", "coordinates": [[-82.17770435, 33.65847365], [-82.414219, 33.453955]]}, "properties": {"overlap_label": "OVL_77", "utility_a": "DESC", "project_id_a": "6810 A", "name_a": "Hooks - Thurmond 115kV Tie: Rebuild", "utility_b": "GPC", "project_id_b": "14222", "name_b": "THOMSON PRIMARY 230/115KV SECOND TRANSFORMER", "center_distance_mi": 19.62, "closest_distance_km": 30.57, "proximity_tier": "under 25 mi", "in_service_gap_days": 3074, "build_windows_overlap": false, "location_confidence": "medium", "override_involved": false, "score": 0.1505, "shared_row_acres": null}}, {"type": "Feature", "geometry": {"type": "LineString", "coordinates": [[-81.0466238, 32.3183371], [-81.1153222, 32.03195885]]}, "properties": {"overlap_label": "OVL_78", "utility_a": "DESC", "project_id_a": "06367 D - G", "name_a": "Jasper \u2013 Okatie 230 kV #2: Construct", "utility_b": "GPC", "project_id_b": "21006", "name_b": "SAV: BOULEVARD - MAGNOLIA 115 KV LINE REBUILD", "center_distance_mi": 20.19, "closest_distance_km": 30.42, "proximity_tier": "under 25 mi", "in_service_gap_days": 1248, "build_windows_overlap": false, "location_confidence": "low", "override_involved": false, "score": 0.1347, "shared_row_acres": null}}, {"type": "Feature", "geometry": {"type": "LineString", "coordinates": [[-81.07188, 32.314835], [-81.368377, 32.1552821]]}, "properties": {"overlap_label": "OVL_79", "utility_a": "DESC", "project_id_a": "6888", "name_a": "Okatie \u2013 McIntosh 115kV Tie: Add Series Reactor", "utility_b": "GPC", "project_id_b": "20796", "name_b": "SAV: MELDRIM BANK D REPLACEMENT", "center_distance_mi": 20.54, "closest_distance_km": 28.45, "proximity_tier": "under 25 mi", "in_service_gap_days": 1613, "build_windows_overlap": false, "location_confidence": "low", "override_involved": false, "score": 0.1249, "shared_row_acres": null}}, {"type": "Feature", "geometry": {"type": "LineString", "coordinates": [[-81.07188, 32.314835], [-81.368377, 32.1552821]]}, "properties": {"overlap_label": "OVL_80", "utility_a": "DESC", "project_id_a": "6888", "name_a": "Okatie \u2013 McIntosh 115kV Tie: Add Series Reactor", "utility_b": "GPC", "project_id_b": "19523", "name_b": "SAV: CC - HYUNDAI MOTORS SAVANNAH AKA. PROJECT EA", "center_distance_mi": 20.54, "closest_distance_km": 28.45, "proximity_tier": "under 25 mi", "in_service_gap_days": 1460, "build_windows_overlap": false, "location_confidence": "low", "override_involved": true, "score": 0.1249, "shared_row_acres": null}}, {"type": "Feature", "geometry": {"type": "LineString", "coordinates": [[-80.9110158, 32.2562906], [-81.20781715, 32.0956148]]}, "properties": {"overlap_label": "OVL_81", "utility_a": "DESC", "project_id_a": "6808 S", "name_a": "Okatie-Bluffton 115kV: Rebuild", "utility_b": "GPC", "project_id_b": "20783", "name_b": "SAV: COLEMAN - DEAN FOREST 115KV LINE REBUILD", "center_distance_mi": 20.6, "closest_distance_km": 29.91, "proximity_tier": "under 25 mi", "in_service_gap_days": 1096, "build_windows_overlap": true, "location_confidence": "low", "override_involved": false, "score": 0.1231, "shared_row_acres": null}}, {"type": "Feature", "geometry": {"type": "LineString", "coordinates": [[-82.1054199, 33.60970965], [-82.414219, 33.453955]]}, "properties": {"overlap_label": "OVL_82", "utility_a": "DESC", "project_id_a": "6809 G", "name_a": "Stevens Creek - Hooks 115kV/LR Plumb Branch 46kV", "utility_b": "GPC", "project_id_b": "14222", "name_b": "THOMSON PRIMARY 230/115KV SECOND TRANSFORMER", "center_distance_mi": 20.79, "closest_distance_km": 32.65, "proximity_tier": "under 25 mi", "in_service_gap_days": 2709, "build_windows_overlap": true, "location_confidence": "low", "override_involved": false, "score": 0.1179, "shared_row_acres": null}}, {"type": "Feature", "geometry": {"type": "LineString", "coordinates": [[-82.1054199, 33.60970965], [-82.414219, 33.453955]]}, "properties": {"overlap_label": "OVL_83", "utility_a": "DESC", "project_id_a": "6809 E", "name_a": "Stevens Creek - Hooks 115kV/LR Plumb Branch 46kV Rebuilds", "utility_b": "GPC", "project_id_b": "14222", "name_b": "THOMSON PRIMARY 230/115KV SECOND TRANSFORMER", "center_distance_mi": 20.79, "closest_distance_km": 32.65, "proximity_tier": "under 25 mi", "in_service_gap_days": 3074, "build_windows_overlap": false, "location_confidence": "low", "override_involved": false, "score": 0.1179, "shared_row_acres": null}}, {"type": "Feature", "geometry": {"type": "LineString", "coordinates": [[-82.1054199, 33.60970965], [-81.9953118, 33.3197599]]}, "properties": {"overlap_label": "OVL_84", "utility_a": "DESC", "project_id_a": "6809 G", "name_a": "Stevens Creek - Hooks 115kV/LR Plumb Branch 46kV", "utility_b": "GPC", "project_id_b": "21116", "name_b": "GOSHEN AREA STRATEGIC SOLUTION", "center_distance_mi": 21.01, "closest_distance_km": 27.5, "proximity_tier": "under 25 mi", "in_service_gap_days": 1613, "build_windows_overlap": true, "location_confidence": "low", "override_involved": true, "score": 0.1116, "shared_row_acres": null}}, {"type": "Feature", "geometry": {"type": "LineString", "coordinates": [[-82.1054199, 33.60970965], [-81.9953118, 33.3197599]]}, "properties": {"overlap_label": "OVL_85", "utility_a": "DESC", "project_id_a": "6809 E", "name_a": "Stevens Creek - Hooks 115kV/LR Plumb Branch 46kV Rebuilds", "utility_b": "GPC", "project_id_b": "21116", "name_b": "GOSHEN AREA STRATEGIC SOLUTION", "center_distance_mi": 21.01, "closest_distance_km": 27.5, "proximity_tier": "under 25 mi", "in_service_gap_days": 1978, "build_windows_overlap": false, "location_confidence": "low", "override_involved": true, "score": 0.1116, "shared_row_acres": null}}, {"type": "Feature", "geometry": {"type": "LineString", "coordinates": [[-81.0466238, 32.3183371], [-81.2209368, 32.0451478]]}, "properties": {"overlap_label": "OVL_86", "utility_a": "DESC", "project_id_a": "06367 D - G", "name_a": "Jasper \u2013 Okatie 230 kV #2: Construct", "utility_b": "GPC", "project_id_b": "21023", "name_b": "SAV: DEAN FOREST - LITTLE OGEECHEE 230 KV REBUILD", "center_distance_mi": 21.45, "closest_distance_km": 29.25, "proximity_tier": "under 25 mi", "in_service_gap_days": 1248, "build_windows_overlap": false, "location_confidence": "low", "override_involved": false, "score": 0.0993, "shared_row_acres": null}}, {"type": "Feature", "geometry": {"type": "LineString", "coordinates": [[-82.18049115, 33.6965542], [-82.414219, 33.453955]]}, "properties": {"overlap_label": "OVL_87", "utility_a": "DESC", "project_id_a": "6809 G (Hooks Modoc)", "name_a": "Hooks - Modoc 115/46 kV Rebuild", "utility_b": "GPC", "project_id_b": "14222", "name_b": "THOMSON PRIMARY 230/115KV SECOND TRANSFORMER", "center_distance_mi": 21.49, "closest_distance_km": 32.65, "proximity_tier": "under 25 mi", "in_service_gap_days": 1979, "build_windows_overlap": true, "location_confidence": "medium", "override_involved": false, "score": 0.0982, "shared_row_acres": null}}, {"type": "Feature", "geometry": {"type": "LineString", "coordinates": [[-81.9279339, 33.57301795], [-82.29143355, 33.4989746]]}, "properties": {"overlap_label": "OVL_88", "utility_a": "DESC", "project_id_a": "6809 T", "name_a": "Stevens Creek - Graniteville 115 kV: Rebuild", "utility_b": "GPC", "project_id_b": "17993", "name_b": "EVANS PRIMARY - THOMSON PRIMARY 115KV REBUILD", "center_distance_mi": 21.55, "closest_distance_km": 11.06, "proximity_tier": "under 25 mi", "in_service_gap_days": 1826, "build_windows_overlap": false, "location_confidence": "medium", "override_involved": false, "score": 0.0966, "shared_row_acres": null}}, {"type": "Feature", "geometry": {"type": "LineString", "coordinates": [[-80.968648, 32.277554], [-81.2976445, 32.131501]]}, "properties": {"overlap_label": "OVL_89", "utility_a": "DESC", "project_id_a": "0139 M,N", "name_a": "Okatie 230-115kV Substation, Jasper \u2013 Yemassee 230kV #1 Fold-in", "utility_b": "GPC", "project_id_b": "20784", "name_b": "SAV: COLEMAN - MELDRIM 115KV LINE REBUILD", "center_distance_mi": 21.72, "closest_distance_km": 30.78, "proximity_tier": "under 25 mi", "in_service_gap_days": 2709, "build_windows_overlap": false, "location_confidence": "low", "override_involved": false, "score": 0.0918, "shared_row_acres": null}}, {"type": "Feature", "geometry": {"type": "LineString", "coordinates": [[-80.968648, 32.277554], [-81.2976445, 32.131501]]}, "properties": {"overlap_label": "OVL_90", "utility_a": "DESC", "project_id_a": "06367 A - C, H", "name_a": "Riverport Tap: Construct Tap", "utility_b": "GPC", "project_id_b": "20784", "name_b": "SAV: COLEMAN - MELDRIM 115KV LINE REBUILD", "center_distance_mi": 21.72, "closest_distance_km": 30.78, "proximity_tier": "under 25 mi", "in_service_gap_days": 2344, "build_windows_overlap": false, "location_confidence": "low", "override_involved": false, "score": 0.0918, "shared_row_acres": null}}, {"type": "Feature", "geometry": {"type": "LineString", "coordinates": [[-80.968648, 32.277554], [-81.2209368, 32.0451478]]}, "properties": {"overlap_label": "OVL_91", "utility_a": "DESC", "project_id_a": "0139 M,N", "name_a": "Okatie 230-115kV Substation, Jasper \u2013 Yemassee 230kV #1 Fold-in", "utility_b": "GPC", "project_id_b": "21023", "name_b": "SAV: DEAN FOREST - LITTLE OGEECHEE 230 KV REBUILD", "center_distance_mi": 21.81, "closest_distance_km": 29.91, "proximity_tier": "under 25 mi", "in_service_gap_days": 1613, "build_windows_overlap": false, "location_confidence": "low", "override_involved": false, "score": 0.0894, "shared_row_acres": null}}, {"type": "Feature", "geometry": {"type": "LineString", "coordinates": [[-80.968648, 32.277554], [-81.2209368, 32.0451478]]}, "properties": {"overlap_label": "OVL_92", "utility_a": "DESC", "project_id_a": "06367 A - C, H", "name_a": "Riverport Tap: Construct Tap", "utility_b": "GPC", "project_id_b": "21023", "name_b": "SAV: DEAN FOREST - LITTLE OGEECHEE 230 KV REBUILD", "center_distance_mi": 21.81, "closest_distance_km": 29.91, "proximity_tier": "under 25 mi", "in_service_gap_days": 1248, "build_windows_overlap": false, "location_confidence": "low", "override_involved": false, "score": 0.0894, "shared_row_acres": null}}, {"type": "Feature", "geometry": {"type": "LineString", "coordinates": [[-81.0466238, 32.3183371], [-81.368377, 32.1552821]]}, "properties": {"overlap_label": "OVL_93", "utility_a": "DESC", "project_id_a": "06367 D - G", "name_a": "Jasper \u2013 Okatie 230 kV #2: Construct", "utility_b": "GPC", "project_id_b": "20796", "name_b": "SAV: MELDRIM BANK D REPLACEMENT", "center_distance_mi": 21.92, "closest_distance_km": 32.24, "proximity_tier": "under 25 mi", "in_service_gap_days": 2709, "build_windows_overlap": false, "location_confidence": "low", "override_involved": false, "score": 0.0862, "shared_row_acres": null}}, {"type": "Feature", "geometry": {"type": "LineString", "coordinates": [[-81.910981, 33.45328635], [-82.29143355, 33.4989746]]}, "properties": {"overlap_label": "OVL_94", "utility_a": "DESC", "project_id_a": "6810 O", "name_a": "Urquhart \u2013 Aiken PSA 46 kV: Rebuild", "utility_b": "GPC", "project_id_b": "17993", "name_b": "EVANS PRIMARY - THOMSON PRIMARY 115KV REBUILD", "center_distance_mi": 22.15, "closest_distance_km": 25.0, "proximity_tier": "under 25 mi", "in_service_gap_days": 2557, "build_windows_overlap": false, "location_confidence": "medium", "override_involved": false, "score": 0.0797, "shared_row_acres": null}}, {"type": "Feature", "geometry": {"type": "LineString", "coordinates": [[-81.07188, 32.314835], [-81.2531513, 32.0067859]]}, "properties": {"overlap_label": "OVL_95", "utility_a": "DESC", "project_id_a": "6888", "name_a": "Okatie \u2013 McIntosh 115kV Tie: Add Series Reactor", "utility_b": "GPC", "project_id_b": "19966", "name_b": "SAV: CC - BIG OGEECHEE 500/230KV (CC NETWORK IMPROVEMENTS)", "center_distance_mi": 23.78, "closest_distance_km": 38.21, "proximity_tier": "under 25 mi", "in_service_gap_days": 944, "build_windows_overlap": false, "location_confidence": "low", "override_involved": true, "score": 0.0756, "shared_row_acres": null}}, {"type": "Feature", "geometry": {"type": "LineString", "coordinates": [[-82.24715405, 33.82141225], [-82.29143355, 33.4989746]]}, "properties": {"overlap_label": "OVL_96", "utility_a": "DESC", "project_id_a": "6809 M (Modoc Mccormick)", "name_a": "Modoc \u2013 McCormick 115/46 kV Rebuild", "utility_b": "GPC", "project_id_b": "17993", "name_b": "EVANS PRIMARY - THOMSON PRIMARY 115KV REBUILD", "center_distance_mi": 22.42, "closest_distance_km": 21.6, "proximity_tier": "under 25 mi", "in_service_gap_days": 1826, "build_windows_overlap": false, "location_confidence": "medium", "override_involved": false, "score": 0.0721, "shared_row_acres": null}}, {"type": "Feature", "geometry": {"type": "LineString", "coordinates": [[-80.9110158, 32.2562906], [-81.2209368, 32.0451478]]}, "properties": {"overlap_label": "OVL_97", "utility_a": "DESC", "project_id_a": "6808 S", "name_a": "Okatie-Bluffton 115kV: Rebuild", "utility_b": "GPC", "project_id_b": "21023", "name_b": "SAV: DEAN FOREST - LITTLE OGEECHEE 230 KV REBUILD", "center_distance_mi": 23.27, "closest_distance_km": 29.91, "proximity_tier": "under 25 mi", "in_service_gap_days": 1461, "build_windows_overlap": false, "location_confidence": "low", "override_involved": false, "score": 0.0484, "shared_row_acres": null}}, {"type": "Feature", "geometry": {"type": "LineString", "coordinates": [[-81.07188, 32.314835], [-81.2531513, 32.0067859]]}, "properties": {"overlap_label": "OVL_98", "utility_a": "DESC", "project_id_a": "6888", "name_a": "Okatie \u2013 McIntosh 115kV Tie: Add Series Reactor", "utility_b": "GPC", "project_id_b": "17075", "name_b": "SAV: LITTLE OGEECHEE 230- 115KV: RELAY MODERNIZATION", "center_distance_mi": 23.78, "closest_distance_km": 38.21, "proximity_tier": "under 25 mi", "in_service_gap_days": 1096, "build_windows_overlap": false, "location_confidence": "low", "override_involved": false, "score": 0.0342, "shared_row_acres": null}}, {"type": "Feature", "geometry": {"type": "LineString", "coordinates": [[-81.07188, 32.314835], [-81.2531513, 32.0067859]]}, "properties": {"overlap_label": "OVL_99", "utility_a": "DESC", "project_id_a": "6888", "name_a": "Okatie \u2013 McIntosh 115kV Tie: Add Series Reactor", "utility_b": "GPC", "project_id_b": "20787", "name_b": "SAV: LITTLE OGEECHEE 230/115KV BANK REPLACEMENT", "center_distance_mi": 23.78, "closest_distance_km": 38.21, "proximity_tier": "under 25 mi", "in_service_gap_days": 1978, "build_windows_overlap": false, "location_confidence": "low", "override_involved": false, "score": 0.0342, "shared_row_acres": null}}, {"type": "Feature", "geometry": {"type": "LineString", "coordinates": [[-81.7892681, 33.4840049], [-82.1822894, 33.60206075]]}, "properties": {"overlap_label": "OVL_100", "utility_a": "DESC", "project_id_a": "6852", "name_a": "Urquhart \u2013 Toolebeck 115kV line: Rebuild", "utility_b": "GPC", "project_id_b": "20793", "name_b": "EVANS PRIMARY - THURMOND DAM (USA) #5 115KV REBUILD", "center_distance_mi": 24.06, "closest_distance_km": 27.02, "proximity_tier": "under 25 mi", "in_service_gap_days": 2485, "build_windows_overlap": false, "location_confidence": "high", "override_involved": false, "score": 0.0264, "shared_row_acres": null}}, {"type": "Feature", "geometry": {"type": "LineString", "coordinates": [[-81.7892681, 33.4840049], [-82.1822894, 33.60206075]]}, "properties": {"overlap_label": "OVL_101", "utility_a": "DESC", "project_id_a": "6852", "name_a": "Urquhart \u2013 Toolebeck 115kV line: Rebuild", "utility_b": "GPC", "project_id_b": "20794", "name_b": "EVANS PRIMARY - THURMOND DAM (USA) #6 115KV REBUILD", "center_distance_mi": 24.06, "closest_distance_km": 27.02, "proximity_tier": "under 25 mi", "in_service_gap_days": 2485, "build_windows_overlap": false, "location_confidence": "high", "override_involved": false, "score": 0.0264, "shared_row_acres": null}}, {"type": "Feature", "geometry": {"type": "LineString", "coordinates": [[-80.9110158, 32.2562906], [-81.2976445, 32.131501]]}, "properties": {"overlap_label": "OVL_102", "utility_a": "DESC", "project_id_a": "6808 S", "name_a": "Okatie-Bluffton 115kV: Rebuild", "utility_b": "GPC", "project_id_b": "20784", "name_b": "SAV: COLEMAN - MELDRIM 115KV LINE REBUILD", "center_distance_mi": 24.19, "closest_distance_km": 30.78, "proximity_tier": "under 25 mi", "in_service_gap_days": 2557, "build_windows_overlap": false, "location_confidence": "low", "override_involved": false, "score": 0.0225, "shared_row_acres": null}}, {"type": "Feature", "geometry": {"type": "LineString", "coordinates": [[-81.0466238, 32.3183371], [-81.2531513, 32.0067859]]}, "properties": {"overlap_label": "OVL_103", "utility_a": "DESC", "project_id_a": "06367 D - G", "name_a": "Jasper \u2013 Okatie 230 kV #2: Construct", "utility_b": "GPC", "project_id_b": "20787", "name_b": "SAV: LITTLE OGEECHEE 230/115KV BANK REPLACEMENT", "center_distance_mi": 24.68, "closest_distance_km": 39.69, "proximity_tier": "under 25 mi", "in_service_gap_days": 3074, "build_windows_overlap": false, "location_confidence": "low", "override_involved": false, "score": 0.0088, "shared_row_acres": null}}, {"type": "Feature", "geometry": {"type": "LineString", "coordinates": [[-80.968648, 32.277554], [-81.368377, 32.1552821]]}, "properties": {"overlap_label": "OVL_104", "utility_a": "DESC", "project_id_a": "06367 A - C, H", "name_a": "Riverport Tap: Construct Tap", "utility_b": "GPC", "project_id_b": "20796", "name_b": "SAV: MELDRIM BANK D REPLACEMENT", "center_distance_mi": 24.85, "closest_distance_km": 39.99, "proximity_tier": "under 25 mi", "in_service_gap_days": 2709, "build_windows_overlap": false, "location_confidence": "low", "override_involved": false, "score": 0.0043, "shared_row_acres": null}}, {"type": "Feature", "geometry": {"type": "LineString", "coordinates": [[-80.968648, 32.277554], [-81.368377, 32.1552821]]}, "properties": {"overlap_label": "OVL_105", "utility_a": "DESC", "project_id_a": "0139 M,N", "name_a": "Okatie 230-115kV Substation, Jasper \u2013 Yemassee 230kV #1 Fold-in", "utility_b": "GPC", "project_id_b": "20796", "name_b": "SAV: MELDRIM BANK D REPLACEMENT", "center_distance_mi": 24.85, "closest_distance_km": 39.99, "proximity_tier": "under 25 mi", "in_service_gap_days": 3074, "build_windows_overlap": false, "location_confidence": "low", "override_involved": false, "score": 0.0043, "shared_row_acres": null}}]}