{"type": "FeatureCollection", "features": [{"type": "Feature", "geometry": {"type": "LineString", "coordinates": [[-81.1245996, 32.3591202], [-81.1751124, 32.3521162]]}, "properties": {"overlap_label": "OVL_1", "utility_a": "DESC", "project_id_a": "06367 D - G", "name_a": "Jasper \u2013 Okatie 230 kV #2: Construct", "utility_b": "GPC", "project_id_b": "20277", "name_b": "SAV: MCINTOSH - PURRYSBURG 230KV REACTORS", "center_distance_mi": 2.99, "proximity_tier": "under 5 mi", "in_service_gap_days": 152, "build_windows_overlap": true, "location_confidence": "low", "override_involved": false, "score": 0.8747, "shared_row_acres": null, "closest_distance_mi": 2.99}}, {"type": "Feature", "geometry": {"type": "LineString", "coordinates": [[-81.175112, 32.352116], [-81.1751124, 32.3521162]]}, "properties": {"overlap_label": "OVL_2", "utility_a": "DESC", "project_id_a": "6888", "name_a": "Okatie \u2013 McIntosh 115kV Tie: Add Series Reactor", "utility_b": "GPC", "project_id_b": "20277", "name_b": "SAV: MCINTOSH - PURRYSBURG 230KV REACTORS", "center_distance_mi": 0.0, "proximity_tier": "touching/crossing", "in_service_gap_days": 944, "build_windows_overlap": false, "location_confidence": "low", "override_involved": false, "score": 0.7414, "shared_row_acres": null, "closest_distance_mi": 0.0}}, {"type": "Feature", "geometry": {"type": "LineString", "coordinates": [[-81.175112, 32.352116], [-81.1922924, 32.3004087]]}, "properties": {"overlap_label": "OVL_3", "utility_a": "DESC", "project_id_a": "6888", "name_a": "Okatie \u2013 McIntosh 115kV Tie: Add Series Reactor", "utility_b": "GPC", "project_id_b": "20065", "name_b": "SAV: GOSHEN (SAV) - MCINTOSH 115KV LINE REBUILD", "center_distance_mi": 3.71, "proximity_tier": "touching/crossing", "in_service_gap_days": 579, "build_windows_overlap": false, "location_confidence": "low", "override_involved": false, "score": 0.7375, "shared_row_acres": null, "closest_distance_mi": 0.0}}, {"type": "Feature", "geometry": {"type": "LineString", "coordinates": [[-81.1245996, 32.3591202], [-81.1922924, 32.3004087]]}, "properties": {"overlap_label": "OVL_4", "utility_a": "DESC", "project_id_a": "06367 D - G", "name_a": "Jasper \u2013 Okatie 230 kV #2: Construct", "utility_b": "GPC", "project_id_b": "20065", "name_b": "SAV: GOSHEN (SAV) - MCINTOSH 115KV LINE REBUILD", "center_distance_mi": 5.66, "proximity_tier": "under 5 mi", "in_service_gap_days": 517, "build_windows_overlap": true, "location_confidence": "low", "override_involved": false, "score": 0.6998, "shared_row_acres": null, "closest_distance_mi": 2.99}}, {"type": "Feature", "geometry": {"type": "LineString", "coordinates": [[-82.1959307, 33.6601273], [-82.1822894, 33.60206075]]}, "properties": {"overlap_label": "OVL_5", "utility_a": "DESC", "project_id_a": "6810 A", "name_a": "Hooks - Thurmond 115kV Tie: Rebuild", "utility_b": "GPC", "project_id_b": "20794", "name_b": "EVANS PRIMARY - THURMOND DAM (USA) #6 115KV REBUILD", "center_distance_mi": 4.09, "proximity_tier": "touching/crossing", "in_service_gap_days": 3074, "build_windows_overlap": false, "location_confidence": "low", "override_involved": false, "score": 0.5855, "shared_row_acres": null, "closest_distance_mi": 0.0}}, {"type": "Feature", "geometry": {"type": "LineString", "coordinates": [[-82.1959307, 33.6601273], [-82.1822894, 33.60206075]]}, "properties": {"overlap_label": "OVL_6", "utility_a": "DESC", "project_id_a": "6810 A", "name_a": "Hooks - Thurmond 115kV Tie: Rebuild", "utility_b": "GPC", "project_id_b": "20793", "name_b": "EVANS PRIMARY - THURMOND DAM (USA) #5 115KV REBUILD", "center_distance_mi": 4.09, "proximity_tier": "touching/crossing", "in_service_gap_days": 3074, "build_windows_overlap": false, "location_confidence": "low", "override_involved": false, "score": 0.5855, "shared_row_acres": null, "closest_distance_mi": 0.0}}, {"type": "Feature", "geometry": {"type": "LineString", "coordinates": [[-81.175112, 32.352116], [-81.17772795, 32.19841825]]}, "properties": {"overlap_label": "OVL_7", "utility_a": "DESC", "project_id_a": "6888", "name_a": "Okatie \u2013 McIntosh 115kV Tie: Add Series Reactor", "utility_b": "GPC", "project_id_b": "20785", "name_b": "SAV: GOSHEN (SAV) - KRAFT 115KV LINE REBUILD", "center_distance_mi": 10.62, "proximity_tier": "under 25 mi", "in_service_gap_days": 579, "build_windows_overlap": false, "location_confidence": "low", "override_involved": false, "score": 0.544, "shared_row_acres": null, "closest_distance_mi": 7.42}}, {"type": "Feature", "geometry": {"type": "LineString", "coordinates": [[-81.1245996, 32.3591202], [-81.17772795, 32.19841825]]}, "properties": {"overlap_label": "OVL_8", "utility_a": "DESC", "project_id_a": "06367 D - G", "name_a": "Jasper \u2013 Okatie 230 kV #2: Construct", "utility_b": "GPC", "project_id_b": "20785", "name_b": "SAV: GOSHEN (SAV) - KRAFT 115KV LINE REBUILD", "center_distance_mi": 11.53, "proximity_tier": "under 25 mi", "in_service_gap_days": 517, "build_windows_overlap": true, "location_confidence": "low", "override_involved": false, "score": 0.5355, "shared_row_acres": null, "closest_distance_mi": 9.1}}, {"type": "Feature", "geometry": {"type": "LineString", "coordinates": [[-81.909209, 33.4333777], [-81.9953118, 33.3197599]]}, "properties": {"overlap_label": "OVL_9", "utility_a": "DESC", "project_id_a": "6810 O", "name_a": "Urquhart \u2013 Aiken PSA 46 kV: Rebuild", "utility_b": "GPC", "project_id_b": "21116", "name_b": "GOSHEN AREA STRATEGIC SOLUTION", "center_distance_mi": 9.29, "proximity_tier": "under 25 mi", "in_service_gap_days": 883, "build_windows_overlap": true, "location_confidence": "low", "override_involved": true, "score": 0.498, "shared_row_acres": null, "closest_distance_mi": 9.29}}, {"type": "Feature", "geometry": {"type": "LineString", "coordinates": [[-80.8533836, 32.2350272], [-81.0672826, 32.0447574]]}, "properties": {"overlap_label": "OVL_10", "utility_a": "DESC", "project_id_a": "6808 S", "name_a": "Okatie-Bluffton 115kV: Rebuild", "utility_b": "GPC", "project_id_b": "20067", "name_b": "SAV: DEPTFORD - MAGNOLIA 115KV RECONDUCTOR", "center_distance_mi": 18.15, "proximity_tier": "under 25 mi", "in_service_gap_days": 0, "build_windows_overlap": true, "location_confidence": "low", "override_involved": false, "score": 0.4918, "shared_row_acres": null, "closest_distance_mi": 16.29}}, {"type": "Feature", "geometry": {"type": "LineString", "coordinates": [[-82.0513618, 33.5625993], [-82.1822894, 33.60206075]]}, "properties": {"overlap_label": "OVL_11", "utility_a": "DESC", "project_id_a": "6809 E", "name_a": "Stevens Creek - Hooks 115kV/LR Plumb Branch 46kV Rebuilds", "utility_b": "GPC", "project_id_b": "20794", "name_b": "EVANS PRIMARY - THURMOND DAM (USA) #6 115KV REBUILD", "center_distance_mi": 8.01, "proximity_tier": "under 25 mi", "in_service_gap_days": 3074, "build_windows_overlap": false, "location_confidence": "low", "override_involved": false, "score": 0.4756, "shared_row_acres": null, "closest_distance_mi": 6.87}}, {"type": "Feature", "geometry": {"type": "LineString", "coordinates": [[-82.0513618, 33.5625993], [-82.1822894, 33.60206075]]}, "properties": {"overlap_label": "OVL_12", "utility_a": "DESC", "project_id_a": "6809 E", "name_a": "Stevens Creek - Hooks 115kV/LR Plumb Branch 46kV Rebuilds", "utility_b": "GPC", "project_id_b": "20793", "name_b": "EVANS PRIMARY - THURMOND DAM (USA) #5 115KV REBUILD", "center_distance_mi": 8.01, "proximity_tier": "under 25 mi", "in_service_gap_days": 3074, "build_windows_overlap": false, "location_confidence": "low", "override_involved": false, "score": 0.4756, "shared_row_acres": null, "closest_distance_mi": 6.87}}, {"type": "Feature", "geometry": {"type": "LineString", "coordinates": [[-82.0513618, 33.5625993], [-82.1822894, 33.60206075]]}, "properties": {"overlap_label": "OVL_13", "utility_a": "DESC", "project_id_a": "6809 G", "name_a": "Stevens Creek - Hooks 115kV/LR Plumb Branch 46kV", "utility_b": "GPC", "project_id_b": "20793", "name_b": "EVANS PRIMARY - THURMOND DAM (USA) #5 115KV REBUILD", "center_distance_mi": 8.01, "proximity_tier": "under 25 mi", "in_service_gap_days": 2709, "build_windows_overlap": false, "location_confidence": "low", "override_involved": false, "score": 0.4756, "shared_row_acres": null, "closest_distance_mi": 6.87}}, {"type": "Feature", "geometry": {"type": "LineString", "coordinates": [[-82.0513618, 33.5625993], [-82.1822894, 33.60206075]]}, "properties": {"overlap_label": "OVL_14", "utility_a": "DESC", "project_id_a": "6809 G", "name_a": "Stevens Creek - Hooks 115kV/LR Plumb Branch 46kV", "utility_b": "GPC", "project_id_b": "20794", "name_b": "EVANS PRIMARY - THURMOND DAM (USA) #6 115KV REBUILD", "center_distance_mi": 8.01, "proximity_tier": "under 25 mi", "in_service_gap_days": 2709, "build_windows_overlap": false, "location_confidence": "low", "override_involved": false, "score": 0.4756, "shared_row_acres": null, "closest_distance_mi": 6.87}}, {"type": "Feature", "geometry": {"type": "LineString", "coordinates": [[-81.9279339, 33.57301795], [-81.9953118, 33.3197599]]}, "properties": {"overlap_label": "OVL_15", "utility_a": "DESC", "project_id_a": "6809 T", "name_a": "Stevens Creek - Graniteville 115 kV: Rebuild", "utility_b": "GPC", "project_id_b": "21116", "name_b": "GOSHEN AREA STRATEGIC SOLUTION", "center_distance_mi": 17.92, "proximity_tier": "under 25 mi", "in_service_gap_days": 152, "build_windows_overlap": true, "location_confidence": "low", "override_involved": true, "score": 0.4565, "shared_row_acres": null, "closest_distance_mi": 17.02}}, {"type": "Feature", "geometry": {"type": "LineString", "coordinates": [[-81.175112, 32.352116], [-81.20781715, 32.0956148]]}, "properties": {"overlap_label": "OVL_16", "utility_a": "DESC", "project_id_a": "6888", "name_a": "Okatie \u2013 McIntosh 115kV Tie: Add Series Reactor", "utility_b": "GPC", "project_id_b": "20783", "name_b": "SAV: COLEMAN - DEAN FOREST 115KV LINE REBUILD", "center_distance_mi": 17.83, "proximity_tier": "under 25 mi", "in_service_gap_days": 213, "build_windows_overlap": true, "location_confidence": "low", "override_involved": false, "score": 0.4425, "shared_row_acres": null, "closest_distance_mi": 17.16}}, {"type": "Feature", "geometry": {"type": "LineString", "coordinates": [[-82.2015043, 33.7362884], [-82.1822894, 33.60206075]]}, "properties": {"overlap_label": "OVL_17", "utility_a": "DESC", "project_id_a": "6809 G (Hooks Modoc)", "name_a": "Hooks - Modoc 115/46 kV Rebuild", "utility_b": "GPC", "project_id_b": "20794", "name_b": "EVANS PRIMARY - THURMOND DAM (USA) #6 115KV REBUILD", "center_distance_mi": 9.34, "proximity_tier": "under 25 mi", "in_service_gap_days": 1979, "build_windows_overlap": false, "location_confidence": "low", "override_involved": false, "score": 0.4385, "shared_row_acres": null, "closest_distance_mi": 5.27}}, {"type": "Feature", "geometry": {"type": "LineString", "coordinates": [[-82.2015043, 33.7362884], [-82.1822894, 33.60206075]]}, "properties": {"overlap_label": "OVL_18", "utility_a": "DESC", "project_id_a": "6809 G (Hooks Modoc)", "name_a": "Hooks - Modoc 115/46 kV Rebuild", "utility_b": "GPC", "project_id_b": "20793", "name_b": "EVANS PRIMARY - THURMOND DAM (USA) #5 115KV REBUILD", "center_distance_mi": 9.34, "proximity_tier": "under 25 mi", "in_service_gap_days": 1979, "build_windows_overlap": false, "location_confidence": "low", "override_involved": false, "score": 0.4385, "shared_row_acres": null, "closest_distance_mi": 5.27}}, {"type": "Feature", "geometry": {"type": "LineString", "coordinates": [[-80.8533836, 32.2350272], [-81.0964241, 32.05402935]]}, "properties": {"overlap_label": "OVL_19", "utility_a": "DESC", "project_id_a": "6808 S", "name_a": "Okatie-Bluffton 115kV: Rebuild", "utility_b": "GPC", "project_id_b": "20066", "name_b": "SAV: BOULEVARD - DEPTFORD 115KV RECONDUCTOR", "center_distance_mi": 18.94, "proximity_tier": "under 25 mi", "in_service_gap_days": 365, "build_windows_overlap": true, "location_confidence": "low", "override_involved": false, "score": 0.3698, "shared_row_acres": null, "closest_distance_mi": 16.29}}, {"type": "Feature", "geometry": {"type": "LineString", "coordinates": [[-81.1245996, 32.3591202], [-81.0964241, 32.05402935]]}, "properties": {"overlap_label": "OVL_20", "utility_a": "DESC", "project_id_a": "06367 D - G", "name_a": "Jasper \u2013 Okatie 230 kV #2: Construct", "utility_b": "GPC", "project_id_b": "20066", "name_b": "SAV: BOULEVARD - DEPTFORD 115KV RECONDUCTOR", "center_distance_mi": 21.14, "proximity_tier": "under 25 mi", "in_service_gap_days": 152, "build_windows_overlap": true, "location_confidence": "low", "override_involved": false, "score": 0.3663, "shared_row_acres": null, "closest_distance_mi": 20.68}}, {"type": "Feature", "geometry": {"type": "LineString", "coordinates": [[-81.175112, 32.352116], [-81.2209368, 32.0451478]]}, "properties": {"overlap_label": "OVL_21", "utility_a": "DESC", "project_id_a": "6888", "name_a": "Okatie \u2013 McIntosh 115kV Tie: Add Series Reactor", "utility_b": "GPC", "project_id_b": "21023", "name_b": "SAV: DEAN FOREST - LITTLE OGEECHEE 230 KV REBUILD", "center_distance_mi": 21.38, "proximity_tier": "under 25 mi", "in_service_gap_days": 152, "build_windows_overlap": true, "location_confidence": "low", "override_involved": false, "score": 0.3598, "shared_row_acres": null, "closest_distance_mi": 18.58}}, {"type": "Feature", "geometry": {"type": "LineString", "coordinates": [[-82.1959307, 33.6601273], [-82.29143355, 33.4989746]]}, "properties": {"overlap_label": "OVL_22", "utility_a": "DESC", "project_id_a": "6810 A", "name_a": "Hooks - Thurmond 115kV Tie: Rebuild", "utility_b": "GPC", "project_id_b": "17993", "name_b": "EVANS PRIMARY - THOMSON PRIMARY 115KV REBUILD", "center_distance_mi": 12.42, "proximity_tier": "under 25 mi", "in_service_gap_days": 3652, "build_windows_overlap": false, "location_confidence": "low", "override_involved": false, "score": 0.3523, "shared_row_acres": null, "closest_distance_mi": 8.18}}, {"type": "Feature", "geometry": {"type": "LineString", "coordinates": [[-81.1245996, 32.3591202], [-81.368377, 32.1552821]]}, "properties": {"overlap_label": "OVL_23", "utility_a": "DESC", "project_id_a": "06367 D - G", "name_a": "Jasper \u2013 Okatie 230 kV #2: Construct", "utility_b": "GPC", "project_id_b": "19523", "name_b": "SAV: CC - HYUNDAI MOTORS SAVANNAH AKA. PROJECT EA", "center_distance_mi": 20.03, "proximity_tier": "under 25 mi", "in_service_gap_days": 364, "build_windows_overlap": true, "location_confidence": "low", "override_involved": true, "score": 0.3394, "shared_row_acres": null, "closest_distance_mi": 20.03}}, {"type": "Feature", "geometry": {"type": "LineString", "coordinates": [[-81.175112, 32.352116], [-81.1153222, 32.03195885]]}, "properties": {"overlap_label": "OVL_24", "utility_a": "DESC", "project_id_a": "6888", "name_a": "Okatie \u2013 McIntosh 115kV Tie: Add Series Reactor", "utility_b": "GPC", "project_id_b": "21006", "name_b": "SAV: BOULEVARD - MAGNOLIA 115 KV LINE REBUILD", "center_distance_mi": 22.4, "proximity_tier": "under 25 mi", "in_service_gap_days": 152, "build_windows_overlap": true, "location_confidence": "low", "override_involved": false, "score": 0.3313, "shared_row_acres": null, "closest_distance_mi": 21.56}}, {"type": "Feature", "geometry": {"type": "LineString", "coordinates": [[-80.8533836, 32.2350272], [-81.1751124, 32.3521162]]}, "properties": {"overlap_label": "OVL_25", "utility_a": "DESC", "project_id_a": "6808 S", "name_a": "Okatie-Bluffton 115kV: Rebuild", "utility_b": "GPC", "project_id_b": "20277", "name_b": "SAV: MCINTOSH - PURRYSBURG 230KV REACTORS", "center_distance_mi": 20.46, "proximity_tier": "under 25 mi", "in_service_gap_days": 365, "build_windows_overlap": true, "location_confidence": "low", "override_involved": false, "score": 0.3272, "shared_row_acres": null, "closest_distance_mi": 20.46}}, {"type": "Feature", "geometry": {"type": "LineString", "coordinates": [[-81.1245996, 32.3591202], [-81.0672826, 32.0447574]]}, "properties": {"overlap_label": "OVL_26", "utility_a": "DESC", "project_id_a": "06367 D - G", "name_a": "Jasper \u2013 Okatie 230 kV #2: Construct", "utility_b": "GPC", "project_id_b": "20067", "name_b": "SAV: DEPTFORD - MAGNOLIA 115KV RECONDUCTOR", "center_distance_mi": 21.98, "proximity_tier": "under 25 mi", "in_service_gap_days": 213, "build_windows_overlap": true, "location_confidence": "low", "override_involved": false, "score": 0.3263, "shared_row_acres": null, "closest_distance_mi": 20.68}}, {"type": "Feature", "geometry": {"type": "LineString", "coordinates": [[-82.0513618, 33.5625993], [-82.29143355, 33.4989746]]}, "properties": {"overlap_label": "OVL_27", "utility_a": "DESC", "project_id_a": "6809 E", "name_a": "Stevens Creek - Hooks 115kV/LR Plumb Branch 46kV Rebuilds", "utility_b": "GPC", "project_id_b": "17993", "name_b": "EVANS PRIMARY - THOMSON PRIMARY 115KV REBUILD", "center_distance_mi": 14.51, "proximity_tier": "under 25 mi", "in_service_gap_days": 3652, "build_windows_overlap": false, "location_confidence": "low", "override_involved": false, "score": 0.2937, "shared_row_acres": null, "closest_distance_mi": 6.87}}, {"type": "Feature", "geometry": {"type": "LineString", "coordinates": [[-82.0513618, 33.5625993], [-82.29143355, 33.4989746]]}, "properties": {"overlap_label": "OVL_28", "utility_a": "DESC", "project_id_a": "6809 G", "name_a": "Stevens Creek - Hooks 115kV/LR Plumb Branch 46kV", "utility_b": "GPC", "project_id_b": "17993", "name_b": "EVANS PRIMARY - THOMSON PRIMARY 115KV REBUILD", "center_distance_mi": 14.51, "proximity_tier": "under 25 mi", "in_service_gap_days": 3287, "build_windows_overlap": false, "location_confidence": "low", "override_involved": false, "score": 0.2937, "shared_row_acres": null, "closest_distance_mi": 6.87}}, {"type": "Feature", "geometry": {"type": "LineString", "coordinates": [[-81.175112, 32.352116], [-81.0861807, 32.0226869]]}, "properties": {"overlap_label": "OVL_29", "utility_a": "DESC", "project_id_a": "6888", "name_a": "Okatie \u2013 McIntosh 115kV Tie: Add Series Reactor", "utility_b": "GPC", "project_id_b": "20407", "name_b": "SAV: MAGNOLIA - TRUMAN PARKWAY 115KV REBUILD", "center_distance_mi": 23.35, "proximity_tier": "under 25 mi", "in_service_gap_days": 213, "build_windows_overlap": true, "location_confidence": "low", "override_involved": false, "score": 0.2879, "shared_row_acres": null, "closest_distance_mi": 23.34}}, {"type": "Feature", "geometry": {"type": "LineString", "coordinates": [[-81.9279339, 33.57301795], [-82.1822894, 33.60206075]]}, "properties": {"overlap_label": "OVL_30", "utility_a": "DESC", "project_id_a": "6809 T", "name_a": "Stevens Creek - Graniteville 115 kV: Rebuild", "utility_b": "GPC", "project_id_b": "20793", "name_b": "EVANS PRIMARY - THURMOND DAM (USA) #5 115KV REBUILD", "center_distance_mi": 14.78, "proximity_tier": "under 25 mi", "in_service_gap_days": 1248, "build_windows_overlap": true, "location_confidence": "high", "override_involved": false, "score": 0.2862, "shared_row_acres": null, "closest_distance_mi": 6.87}}, {"type": "Feature", "geometry": {"type": "LineString", "coordinates": [[-81.9279339, 33.57301795], [-82.1822894, 33.60206075]]}, "properties": {"overlap_label": "OVL_31", "utility_a": "DESC", "project_id_a": "6809 T", "name_a": "Stevens Creek - Graniteville 115 kV: Rebuild", "utility_b": "GPC", "project_id_b": "20794", "name_b": "EVANS PRIMARY - THURMOND DAM (USA) #6 115KV REBUILD", "center_distance_mi": 14.78, "proximity_tier": "under 25 mi", "in_service_gap_days": 1248, "build_windows_overlap": false, "location_confidence": "high", "override_involved": false, "score": 0.2862, "shared_row_acres": null, "closest_distance_mi": 6.87}}, {"type": "Feature", "geometry": {"type": "LineString", "coordinates": [[-80.8533836, 32.2350272], [-81.17772795, 32.19841825]]}, "properties": {"overlap_label": "OVL_32", "utility_a": "DESC", "project_id_a": "6808 S", "name_a": "Okatie-Bluffton 115kV: Rebuild", "utility_b": "GPC", "project_id_b": "20785", "name_b": "SAV: GOSHEN (SAV) - KRAFT 115KV LINE REBUILD", "center_distance_mi": 19.13, "proximity_tier": "under 25 mi", "in_service_gap_days": 730, "build_windows_overlap": true, "location_confidence": "low", "override_involved": false, "score": 0.2644, "shared_row_acres": null, "closest_distance_mi": 18.13}}, {"type": "Feature", "geometry": {"type": "LineString", "coordinates": [[-82.24715405, 33.82141225], [-82.1822894, 33.60206075]]}, "properties": {"overlap_label": "OVL_33", "utility_a": "DESC", "project_id_a": "6809 M (Modoc Mccormick)", "name_a": "Modoc \u2013 McCormick 115/46 kV Rebuild", "utility_b": "GPC", "project_id_b": "20794", "name_b": "EVANS PRIMARY - THURMOND DAM (USA) #6 115KV REBUILD", "center_distance_mi": 15.61, "proximity_tier": "under 25 mi", "in_service_gap_days": 1248, "build_windows_overlap": false, "location_confidence": "high", "override_involved": false, "score": 0.263, "shared_row_acres": null, "closest_distance_mi": 5.27}}, {"type": "Feature", "geometry": {"type": "LineString", "coordinates": [[-82.24715405, 33.82141225], [-82.1822894, 33.60206075]]}, "properties": {"overlap_label": "OVL_34", "utility_a": "DESC", "project_id_a": "6809 M (Modoc Mccormick)", "name_a": "Modoc \u2013 McCormick 115/46 kV Rebuild", "utility_b": "GPC", "project_id_b": "20793", "name_b": "EVANS PRIMARY - THURMOND DAM (USA) #5 115KV REBUILD", "center_distance_mi": 15.61, "proximity_tier": "under 25 mi", "in_service_gap_days": 1248, "build_windows_overlap": true, "location_confidence": "high", "override_involved": false, "score": 0.263, "shared_row_acres": null, "closest_distance_mi": 5.27}}, {"type": "Feature", "geometry": {"type": "LineString", "coordinates": [[-81.7892681, 33.4840049], [-81.9953118, 33.3197599]]}, "properties": {"overlap_label": "OVL_35", "utility_a": "DESC", "project_id_a": "6852", "name_a": "Urquhart \u2013 Toolebeck 115kV line: Rebuild", "utility_b": "GPC", "project_id_b": "21116", "name_b": "GOSHEN AREA STRATEGIC SOLUTION", "center_distance_mi": 16.43, "proximity_tier": "under 25 mi", "in_service_gap_days": 1389, "build_windows_overlap": true, "location_confidence": "low", "override_involved": true, "score": 0.2399, "shared_row_acres": null, "closest_distance_mi": 9.29}}, {"type": "Feature", "geometry": {"type": "LineString", "coordinates": [[-80.8533836, 32.2350272], [-81.1922924, 32.3004087]]}, "properties": {"overlap_label": "OVL_36", "utility_a": "DESC", "project_id_a": "6808 S", "name_a": "Okatie-Bluffton 115kV: Rebuild", "utility_b": "GPC", "project_id_b": "20065", "name_b": "SAV: GOSHEN (SAV) - MCINTOSH 115KV LINE REBUILD", "center_distance_mi": 20.31, "proximity_tier": "under 25 mi", "in_service_gap_days": 730, "build_windows_overlap": true, "location_confidence": "low", "override_involved": false, "score": 0.2314, "shared_row_acres": null, "closest_distance_mi": 20.28}}, {"type": "Feature", "geometry": {"type": "LineString", "coordinates": [[-81.1245996, 32.3591202], [-81.20781715, 32.0956148]]}, "properties": {"overlap_label": "OVL_37", "utility_a": "DESC", "project_id_a": "06367 D - G", "name_a": "Jasper \u2013 Okatie 230 kV #2: Construct", "utility_b": "GPC", "project_id_b": "20783", "name_b": "SAV: COLEMAN - DEAN FOREST 115KV LINE REBUILD", "center_distance_mi": 18.85, "proximity_tier": "under 25 mi", "in_service_gap_days": 883, "build_windows_overlap": true, "location_confidence": "low", "override_involved": false, "score": 0.2304, "shared_row_acres": null, "closest_distance_mi": 18.37}}, {"type": "Feature", "geometry": {"type": "LineString", "coordinates": [[-81.175112, 32.352116], [-81.2976445, 32.131501]]}, "properties": {"overlap_label": "OVL_38", "utility_a": "DESC", "project_id_a": "6888", "name_a": "Okatie \u2013 McIntosh 115kV Tie: Add Series Reactor", "utility_b": "GPC", "project_id_b": "20784", "name_b": "SAV: COLEMAN - MELDRIM 115KV LINE REBUILD", "center_distance_mi": 16.84, "proximity_tier": "under 25 mi", "in_service_gap_days": 1248, "build_windows_overlap": false, "location_confidence": "low", "override_involved": false, "score": 0.2284, "shared_row_acres": null, "closest_distance_mi": 16.81}}, {"type": "Feature", "geometry": {"type": "LineString", "coordinates": [[-82.0513618, 33.5625993], [-81.9953118, 33.3197599]]}, "properties": {"overlap_label": "OVL_39", "utility_a": "DESC", "project_id_a": "6809 E", "name_a": "Stevens Creek - Hooks 115kV/LR Plumb Branch 46kV Rebuilds", "utility_b": "GPC", "project_id_b": "21116", "name_b": "GOSHEN AREA STRATEGIC SOLUTION", "center_distance_mi": 17.09, "proximity_tier": "under 25 mi", "in_service_gap_days": 1978, "build_windows_overlap": false, "location_confidence": "low", "override_involved": true, "score": 0.2216, "shared_row_acres": null, "closest_distance_mi": 17.09}}, {"type": "Feature", "geometry": {"type": "LineString", "coordinates": [[-82.0513618, 33.5625993], [-81.9953118, 33.3197599]]}, "properties": {"overlap_label": "OVL_40", "utility_a": "DESC", "project_id_a": "6809 G", "name_a": "Stevens Creek - Hooks 115kV/LR Plumb Branch 46kV", "utility_b": "GPC", "project_id_b": "21116", "name_b": "GOSHEN AREA STRATEGIC SOLUTION", "center_distance_mi": 17.09, "proximity_tier": "under 25 mi", "in_service_gap_days": 1613, "build_windows_overlap": true, "location_confidence": "low", "override_involved": true, "score": 0.2216, "shared_row_acres": null, "closest_distance_mi": 17.09}}, {"type": "Feature", "geometry": {"type": "LineString", "coordinates": [[-82.2015043, 33.7362884], [-82.29143355, 33.4989746]]}, "properties": {"overlap_label": "OVL_41", "utility_a": "DESC", "project_id_a": "6809 G (Hooks Modoc)", "name_a": "Hooks - Modoc 115/46 kV Rebuild", "utility_b": "GPC", "project_id_b": "17993", "name_b": "EVANS PRIMARY - THOMSON PRIMARY 115KV REBUILD", "center_distance_mi": 17.19, "proximity_tier": "under 25 mi", "in_service_gap_days": 2557, "build_windows_overlap": false, "location_confidence": "low", "override_involved": false, "score": 0.2186, "shared_row_acres": null, "closest_distance_mi": 13.42}}, {"type": "Feature", "geometry": {"type": "LineString", "coordinates": [[-81.175112, 32.352116], [-81.368377, 32.1552821]]}, "properties": {"overlap_label": "OVL_42", "utility_a": "DESC", "project_id_a": "6888", "name_a": "Okatie \u2013 McIntosh 115kV Tie: Add Series Reactor", "utility_b": "GPC", "project_id_b": "20796", "name_b": "SAV: MELDRIM BANK D REPLACEMENT", "center_distance_mi": 17.68, "proximity_tier": "under 25 mi", "in_service_gap_days": 1613, "build_windows_overlap": false, "location_confidence": "low", "override_involved": false, "score": 0.205, "shared_row_acres": null, "closest_distance_mi": 17.68}}, {"type": "Feature", "geometry": {"type": "LineString", "coordinates": [[-81.175112, 32.352116], [-81.368377, 32.1552821]]}, "properties": {"overlap_label": "OVL_43", "utility_a": "DESC", "project_id_a": "6888", "name_a": "Okatie \u2013 McIntosh 115kV Tie: Add Series Reactor", "utility_b": "GPC", "project_id_b": "19523", "name_b": "SAV: CC - HYUNDAI MOTORS SAVANNAH AKA. PROJECT EA", "center_distance_mi": 17.68, "proximity_tier": "under 25 mi", "in_service_gap_days": 1460, "build_windows_overlap": false, "location_confidence": "low", "override_involved": true, "score": 0.205, "shared_row_acres": null, "closest_distance_mi": 17.68}}, {"type": "Feature", "geometry": {"type": "LineString", "coordinates": [[-81.1245996, 32.3591202], [-81.2976445, 32.131501]]}, "properties": {"overlap_label": "OVL_44", "utility_a": "DESC", "project_id_a": "06367 D - G", "name_a": "Jasper \u2013 Okatie 230 kV #2: Construct", "utility_b": "GPC", "project_id_b": "20784", "name_b": "SAV: COLEMAN - MELDRIM 115KV LINE REBUILD", "center_distance_mi": 18.7, "proximity_tier": "under 25 mi", "in_service_gap_days": 2344, "build_windows_overlap": false, "location_confidence": "low", "override_involved": false, "score": 0.1765, "shared_row_acres": null, "closest_distance_mi": 18.35}}, {"type": "Feature", "geometry": {"type": "LineString", "coordinates": [[-82.1959307, 33.6601273], [-82.414219, 33.453955]]}, "properties": {"overlap_label": "OVL_45", "utility_a": "DESC", "project_id_a": "6810 A", "name_a": "Hooks - Thurmond 115kV Tie: Rebuild", "utility_b": "GPC", "project_id_b": "14222", "name_b": "THOMSON PRIMARY 230/115KV SECOND TRANSFORMER", "center_distance_mi": 19.0, "proximity_tier": "under 25 mi", "in_service_gap_days": 3074, "build_windows_overlap": false, "location_confidence": "low", "override_involved": false, "score": 0.1681, "shared_row_acres": null, "closest_distance_mi": 19.0}}, {"type": "Feature", "geometry": {"type": "LineString", "coordinates": [[-81.909209, 33.4333777], [-82.1822894, 33.60206075]]}, "properties": {"overlap_label": "OVL_46", "utility_a": "DESC", "project_id_a": "6810 O", "name_a": "Urquhart \u2013 Aiken PSA 46 kV: Rebuild", "utility_b": "GPC", "project_id_b": "20793", "name_b": "EVANS PRIMARY - THURMOND DAM (USA) #5 115KV REBUILD", "center_distance_mi": 19.58, "proximity_tier": "under 25 mi", "in_service_gap_days": 1979, "build_windows_overlap": false, "location_confidence": "low", "override_involved": false, "score": 0.1518, "shared_row_acres": null, "closest_distance_mi": 16.79}}, {"type": "Feature", "geometry": {"type": "LineString", "coordinates": [[-81.909209, 33.4333777], [-82.1822894, 33.60206075]]}, "properties": {"overlap_label": "OVL_47", "utility_a": "DESC", "project_id_a": "6810 O", "name_a": "Urquhart \u2013 Aiken PSA 46 kV: Rebuild", "utility_b": "GPC", "project_id_b": "20794", "name_b": "EVANS PRIMARY - THURMOND DAM (USA) #6 115KV REBUILD", "center_distance_mi": 19.58, "proximity_tier": "under 25 mi", "in_service_gap_days": 1979, "build_windows_overlap": false, "location_confidence": "low", "override_involved": false, "score": 0.1518, "shared_row_acres": null, "closest_distance_mi": 16.79}}, {"type": "Feature", "geometry": {"type": "LineString", "coordinates": [[-81.175112, 32.352116], [-81.0964241, 32.05402935]]}, "properties": {"overlap_label": "OVL_48", "utility_a": "DESC", "project_id_a": "6888", "name_a": "Okatie \u2013 McIntosh 115kV Tie: Add Series Reactor", "utility_b": "GPC", "project_id_b": "20066", "name_b": "SAV: BOULEVARD - DEPTFORD 115KV RECONDUCTOR", "center_distance_mi": 21.1, "proximity_tier": "under 25 mi", "in_service_gap_days": 944, "build_windows_overlap": false, "location_confidence": "low", "override_involved": false, "score": 0.1505, "shared_row_acres": null, "closest_distance_mi": 21.03}}, {"type": "Feature", "geometry": {"type": "LineString", "coordinates": [[-80.8533836, 32.2350272], [-81.0861807, 32.0226869]]}, "properties": {"overlap_label": "OVL_49", "utility_a": "DESC", "project_id_a": "6808 S", "name_a": "Okatie-Bluffton 115kV: Rebuild", "utility_b": "GPC", "project_id_b": "20407", "name_b": "SAV: MAGNOLIA - TRUMAN PARKWAY 115KV REBUILD", "center_distance_mi": 20.02, "proximity_tier": "under 25 mi", "in_service_gap_days": 1096, "build_windows_overlap": true, "location_confidence": "low", "override_involved": false, "score": 0.1394, "shared_row_acres": null, "closest_distance_mi": 20.02}}, {"type": "Feature", "geometry": {"type": "LineString", "coordinates": [[-81.1245996, 32.3591202], [-81.368377, 32.1552821]]}, "properties": {"overlap_label": "OVL_50", "utility_a": "DESC", "project_id_a": "06367 D - G", "name_a": "Jasper \u2013 Okatie 230 kV #2: Construct", "utility_b": "GPC", "project_id_b": "20796", "name_b": "SAV: MELDRIM BANK D REPLACEMENT", "center_distance_mi": 20.03, "proximity_tier": "under 25 mi", "in_service_gap_days": 2709, "build_windows_overlap": false, "location_confidence": "low", "override_involved": false, "score": 0.1391, "shared_row_acres": null, "closest_distance_mi": 20.03}}, {"type": "Feature", "geometry": {"type": "LineString", "coordinates": [[-80.8533836, 32.2350272], [-81.1153222, 32.03195885]]}, "properties": {"overlap_label": "OVL_51", "utility_a": "DESC", "project_id_a": "6808 S", "name_a": "Okatie-Bluffton 115kV: Rebuild", "utility_b": "GPC", "project_id_b": "21006", "name_b": "SAV: BOULEVARD - MAGNOLIA 115 KV LINE REBUILD", "center_distance_mi": 20.78, "proximity_tier": "under 25 mi", "in_service_gap_days": 1461, "build_windows_overlap": false, "location_confidence": "low", "override_involved": false, "score": 0.1182, "shared_row_acres": null, "closest_distance_mi": 20.02}}, {"type": "Feature", "geometry": {"type": "LineString", "coordinates": [[-81.1245996, 32.3591202], [-81.0861807, 32.0226869]]}, "properties": {"overlap_label": "OVL_52", "utility_a": "DESC", "project_id_a": "06367 D - G", "name_a": "Jasper \u2013 Okatie 230 kV #2: Construct", "utility_b": "GPC", "project_id_b": "20407", "name_b": "SAV: MAGNOLIA - TRUMAN PARKWAY 115KV REBUILD", "center_distance_mi": 23.35, "proximity_tier": "under 25 mi", "in_service_gap_days": 883, "build_windows_overlap": true, "location_confidence": "low", "override_involved": false, "score": 0.1042, "shared_row_acres": null, "closest_distance_mi": 23.35}}, {"type": "Feature", "geometry": {"type": "LineString", "coordinates": [[-81.9279339, 33.57301795], [-82.29143355, 33.4989746]]}, "properties": {"overlap_label": "OVL_53", "utility_a": "DESC", "project_id_a": "6809 T", "name_a": "Stevens Creek - Graniteville 115 kV: Rebuild", "utility_b": "GPC", "project_id_b": "17993", "name_b": "EVANS PRIMARY - THOMSON PRIMARY 115KV REBUILD", "center_distance_mi": 21.55, "proximity_tier": "under 25 mi", "in_service_gap_days": 1826, "build_windows_overlap": false, "location_confidence": "medium", "override_involved": false, "score": 0.0966, "shared_row_acres": null, "closest_distance_mi": 6.87}}, {"type": "Feature", "geometry": {"type": "LineString", "coordinates": [[-81.175112, 32.352116], [-81.0672826, 32.0447574]]}, "properties": {"overlap_label": "OVL_54", "utility_a": "DESC", "project_id_a": "6888", "name_a": "Okatie \u2013 McIntosh 115kV Tie: Add Series Reactor", "utility_b": "GPC", "project_id_b": "20067", "name_b": "SAV: DEPTFORD - MAGNOLIA 115KV RECONDUCTOR", "center_distance_mi": 22.15, "proximity_tier": "under 25 mi", "in_service_gap_days": 1309, "build_windows_overlap": false, "location_confidence": "low", "override_involved": false, "score": 0.0797, "shared_row_acres": null, "closest_distance_mi": 21.06}}, {"type": "Feature", "geometry": {"type": "LineString", "coordinates": [[-82.0513618, 33.5625993], [-82.414219, 33.453955]]}, "properties": {"overlap_label": "OVL_55", "utility_a": "DESC", "project_id_a": "6809 G", "name_a": "Stevens Creek - Hooks 115kV/LR Plumb Branch 46kV", "utility_b": "GPC", "project_id_b": "14222", "name_b": "THOMSON PRIMARY 230/115KV SECOND TRANSFORMER", "center_distance_mi": 22.21, "proximity_tier": "under 25 mi", "in_service_gap_days": 2709, "build_windows_overlap": true, "location_confidence": "low", "override_involved": false, "score": 0.0781, "shared_row_acres": null, "closest_distance_mi": 22.21}}, {"type": "Feature", "geometry": {"type": "LineString", "coordinates": [[-82.0513618, 33.5625993], [-82.414219, 33.453955]]}, "properties": {"overlap_label": "OVL_56", "utility_a": "DESC", "project_id_a": "6809 E", "name_a": "Stevens Creek - Hooks 115kV/LR Plumb Branch 46kV Rebuilds", "utility_b": "GPC", "project_id_b": "14222", "name_b": "THOMSON PRIMARY 230/115KV SECOND TRANSFORMER", "center_distance_mi": 22.21, "proximity_tier": "under 25 mi", "in_service_gap_days": 3074, "build_windows_overlap": false, "location_confidence": "low", "override_involved": false, "score": 0.0781, "shared_row_acres": null, "closest_distance_mi": 22.21}}, {"type": "Feature", "geometry": {"type": "LineString", "coordinates": [[-81.1245996, 32.3591202], [-81.2209368, 32.0451478]]}, "properties": {"overlap_label": "OVL_57", "utility_a": "DESC", "project_id_a": "06367 D - G", "name_a": "Jasper \u2013 Okatie 230 kV #2: Construct", "utility_b": "GPC", "project_id_b": "21023", "name_b": "SAV: DEAN FOREST - LITTLE OGEECHEE 230 KV REBUILD", "center_distance_mi": 22.41, "proximity_tier": "under 25 mi", "in_service_gap_days": 1248, "build_windows_overlap": false, "location_confidence": "low", "override_involved": false, "score": 0.0724, "shared_row_acres": null, "closest_distance_mi": 19.41}}, {"type": "Feature", "geometry": {"type": "LineString", "coordinates": [[-82.24715405, 33.82141225], [-82.29143355, 33.4989746]]}, "properties": {"overlap_label": "OVL_58", "utility_a": "DESC", "project_id_a": "6809 M (Modoc Mccormick)", "name_a": "Modoc \u2013 McCormick 115/46 kV Rebuild", "utility_b": "GPC", "project_id_b": "17993", "name_b": "EVANS PRIMARY - THOMSON PRIMARY 115KV REBUILD", "center_distance_mi": 22.42, "proximity_tier": "under 25 mi", "in_service_gap_days": 1826, "build_windows_overlap": false, "location_confidence": "medium", "override_involved": false, "score": 0.0721, "shared_row_acres": null, "closest_distance_mi": 13.42}}, {"type": "Feature", "geometry": {"type": "LineString", "coordinates": [[-81.909209, 33.4333777], [-82.29143355, 33.4989746]]}, "properties": {"overlap_label": "OVL_59", "utility_a": "DESC", "project_id_a": "6810 O", "name_a": "Urquhart \u2013 Aiken PSA 46 kV: Rebuild", "utility_b": "GPC", "project_id_b": "17993", "name_b": "EVANS PRIMARY - THOMSON PRIMARY 115KV REBUILD", "center_distance_mi": 22.49, "proximity_tier": "under 25 mi", "in_service_gap_days": 2557, "build_windows_overlap": false, "location_confidence": "low", "override_involved": false, "score": 0.0702, "shared_row_acres": null, "closest_distance_mi": 16.79}}, {"type": "Feature", "geometry": {"type": "LineString", "coordinates": [[-81.1245996, 32.3591202], [-81.1153222, 32.03195885]]}, "properties": {"overlap_label": "OVL_60", "utility_a": "DESC", "project_id_a": "06367 D - G", "name_a": "Jasper \u2013 Okatie 230 kV #2: Construct", "utility_b": "GPC", "project_id_b": "21006", "name_b": "SAV: BOULEVARD - MAGNOLIA 115 KV LINE REBUILD", "center_distance_mi": 22.61, "proximity_tier": "under 25 mi", "in_service_gap_days": 1248, "build_windows_overlap": false, "location_confidence": "low", "override_involved": false, "score": 0.0669, "shared_row_acres": null, "closest_distance_mi": 22.0}}, {"type": "Feature", "geometry": {"type": "LineString", "coordinates": [[-81.175112, 32.352116], [-81.2531513, 32.0067859]]}, "properties": {"overlap_label": "OVL_61", "utility_a": "DESC", "project_id_a": "6888", "name_a": "Okatie \u2013 McIntosh 115kV Tie: Add Series Reactor", "utility_b": "GPC", "project_id_b": "19966", "name_b": "SAV: CC - BIG OGEECHEE 500/230KV (CC NETWORK IMPROVEMENTS)", "center_distance_mi": 24.29, "proximity_tier": "under 25 mi", "in_service_gap_days": 944, "build_windows_overlap": false, "location_confidence": "low", "override_involved": true, "score": 0.0612, "shared_row_acres": null, "closest_distance_mi": 24.3}}, {"type": "Feature", "geometry": {"type": "LineString", "coordinates": [[-80.8533836, 32.2350272], [-81.20781715, 32.0956148]]}, "properties": {"overlap_label": "OVL_62", "utility_a": "DESC", "project_id_a": "6808 S", "name_a": "Okatie-Bluffton 115kV: Rebuild", "utility_b": "GPC", "project_id_b": "20783", "name_b": "SAV: COLEMAN - DEAN FOREST 115KV LINE REBUILD", "center_distance_mi": 22.86, "proximity_tier": "under 25 mi", "in_service_gap_days": 1096, "build_windows_overlap": true, "location_confidence": "low", "override_involved": false, "score": 0.0599, "shared_row_acres": null, "closest_distance_mi": 22.23}}, {"type": "Feature", "geometry": {"type": "LineString", "coordinates": [[-82.2015043, 33.7362884], [-82.414219, 33.453955]]}, "properties": {"overlap_label": "OVL_63", "utility_a": "DESC", "project_id_a": "6809 G (Hooks Modoc)", "name_a": "Hooks - Modoc 115/46 kV Rebuild", "utility_b": "GPC", "project_id_b": "14222", "name_b": "THOMSON PRIMARY 230/115KV SECOND TRANSFORMER", "center_distance_mi": 23.03, "proximity_tier": "under 25 mi", "in_service_gap_days": 1979, "build_windows_overlap": true, "location_confidence": "low", "override_involved": false, "score": 0.0551, "shared_row_acres": null, "closest_distance_mi": 23.03}}, {"type": "Feature", "geometry": {"type": "LineString", "coordinates": [[-81.7892681, 33.4840049], [-82.1822894, 33.60206075]]}, "properties": {"overlap_label": "OVL_64", "utility_a": "DESC", "project_id_a": "6852", "name_a": "Urquhart \u2013 Toolebeck 115kV line: Rebuild", "utility_b": "GPC", "project_id_b": "20793", "name_b": "EVANS PRIMARY - THURMOND DAM (USA) #5 115KV REBUILD", "center_distance_mi": 24.06, "proximity_tier": "under 25 mi", "in_service_gap_days": 2485, "build_windows_overlap": false, "location_confidence": "high", "override_involved": false, "score": 0.0264, "shared_row_acres": null, "closest_distance_mi": 16.79}}, {"type": "Feature", "geometry": {"type": "LineString", "coordinates": [[-81.7892681, 33.4840049], [-82.1822894, 33.60206075]]}, "properties": {"overlap_label": "OVL_65", "utility_a": "DESC", "project_id_a": "6852", "name_a": "Urquhart \u2013 Toolebeck 115kV line: Rebuild", "utility_b": "GPC", "project_id_b": "20794", "name_b": "EVANS PRIMARY - THURMOND DAM (USA) #6 115KV REBUILD", "center_distance_mi": 24.06, "proximity_tier": "under 25 mi", "in_service_gap_days": 2485, "build_windows_overlap": false, "location_confidence": "high", "override_involved": false, "score": 0.0264, "shared_row_acres": null, "closest_distance_mi": 16.79}}, {"type": "Feature", "geometry": {"type": "LineString", "coordinates": [[-81.175112, 32.352116], [-81.2531513, 32.0067859]]}, "properties": {"overlap_label": "OVL_66", "utility_a": "DESC", "project_id_a": "6888", "name_a": "Okatie \u2013 McIntosh 115kV Tie: Add Series Reactor", "utility_b": "GPC", "project_id_b": "17075", "name_b": "SAV: LITTLE OGEECHEE 230- 115KV: RELAY MODERNIZATION", "center_distance_mi": 24.29, "proximity_tier": "under 25 mi", "in_service_gap_days": 1096, "build_windows_overlap": false, "location_confidence": "low", "override_involved": false, "score": 0.0198, "shared_row_acres": null, "closest_distance_mi": 24.3}}, {"type": "Feature", "geometry": {"type": "LineString", "coordinates": [[-81.175112, 32.352116], [-81.2531513, 32.0067859]]}, "properties": {"overlap_label": "OVL_67", "utility_a": "DESC", "project_id_a": "6888", "name_a": "Okatie \u2013 McIntosh 115kV Tie: Add Series Reactor", "utility_b": "GPC", "project_id_b": "20787", "name_b": "SAV: LITTLE OGEECHEE 230/115KV BANK REPLACEMENT", "center_distance_mi": 24.29, "proximity_tier": "under 25 mi", "in_service_gap_days": 1978, "build_windows_overlap": false, "location_confidence": "low", "override_involved": false, "score": 0.0198, "shared_row_acres": null, "closest_distance_mi": 24.3}}]}