{"type": "FeatureCollection", "features": [{"type": "Feature", "geometry": {"type": "Point", "coordinates": [-80.968648, 32.277554]}, "properties": {"utility_id": "DESC", "project_id": "0139 M,N", "project_name": "Okatie 230-115kV Substation, Jasper \u2013 Yemassee 230kV #1 Fold-in", "project_type": "substation", "name_a": "Okatie", "name_b": null, "lat_a": 32.277554, "lon_a": -80.968648, "lat_b": null, "lon_b": null, "lat_center": 32.277554, "lon_center": -80.968648, "in_service_date": "2024-12-31", "location_confidence": "low", "source_kind": "official"}}, {"type": "Feature", "geometry": {"type": "Point", "coordinates": [-79.9044954, 32.9193841]}, "properties": {"utility_id": "DESC", "project_id": "0147 B, J", "project_name": "Jack Primus 115 kV Tap: Construct", "project_type": "new_line", "name_a": "Jack Primus", "name_b": "Clements Ferry", "lat_a": 32.9193841, "lon_a": -79.9044954, "lat_b": null, "lon_b": null, "lat_center": 32.9193841, "lon_center": -79.9044954, "in_service_date": "2027-12-31", "location_confidence": "low", "source_kind": "official"}}, {"type": "Feature", "geometry": {"type": "Point", "coordinates": [-79.8422757, 32.941402]}, "properties": {"utility_id": "DESC", "project_id": "0147 C, K", "project_name": "Cainhoy 115 kV Tap: Construct", "project_type": "new_line", "name_a": "Cainhoy", "name_b": "Clements Ferry", "lat_a": 32.941402, "lon_a": -79.8422757, "lat_b": null, "lon_b": null, "lat_center": 32.941402, "lon_center": -79.8422757, "in_service_date": "2027-12-31", "location_confidence": "low", "source_kind": "official"}}, {"type": "Feature", "geometry": {"type": "Point", "coordinates": [-81.0492872, 33.9971705]}, "properties": {"utility_id": "DESC", "project_id": "02726 K", "project_name": "Columbia Canal 115 kV: Rebuild", "project_type": "line_rebuild", "name_a": "Columbia Canal", "name_b": null, "lat_a": 33.9971705, "lon_a": -81.0492872, "lat_b": null, "lon_b": null, "lat_center": 33.9971705, "lon_center": -81.0492872, "in_service_date": "2026-05-31", "location_confidence": "high", "source_kind": "official"}}, {"type": "Feature", "geometry": {"type": "Point", "coordinates": [-80.4511658, 33.2099069]}, "properties": {"utility_id": "DESC", "project_id": "06005 B", "project_name": "Harleyville 115KV Transmission Tap \u2013 Construct (1.4 miles)", "project_type": "new_line", "name_a": "Harleyville", "name_b": null, "lat_a": 33.2099069, "lon_a": -80.4511658, "lat_b": null, "lon_b": null, "lat_center": 33.2099069, "lon_center": -80.4511658, "in_service_date": "2027-03-31", "location_confidence": "low", "source_kind": "official"}}, {"type": "Feature", "geometry": {"type": "Point", "coordinates": [-80.6205999, 33.0640963]}, "properties": {"utility_id": "DESC", "project_id": "06076A", "project_name": "Canadys-Ritter 115KV-Rebld SPDC 230/115KV 1272 (Approx 18 Miles)", "project_type": "line_rebuild", "name_a": "Canadys", "name_b": "Ritter", "lat_a": 33.0640963, "lon_a": -80.6205999, "lat_b": null, "lon_b": null, "lat_center": 33.0640963, "lon_center": -80.6205999, "in_service_date": "2026-06-01", "location_confidence": "low", "source_kind": "official"}}, {"type": "Feature", "geometry": {"type": "Point", "coordinates": [-80.968648, 32.277554]}, "properties": {"utility_id": "DESC", "project_id": "06367 A - C, H", "project_name": "Riverport Tap: Construct Tap", "project_type": "new_line", "name_a": "Okatie", "name_b": "Riverport", "lat_a": 32.277554, "lon_a": -80.968648, "lat_b": null, "lon_b": null, "lat_center": 32.277554, "lon_center": -80.968648, "in_service_date": "2025-12-31", "location_confidence": "low", "source_kind": "official"}}, {"type": "Feature", "geometry": {"type": "LineString", "coordinates": [[-81.1245996, 32.3591202], [-80.968648, 32.277554]]}, "properties": {"utility_id": "DESC", "project_id": "06367 D - G", "project_name": "Jasper \u2013 Okatie 230 kV #2: Construct", "project_type": "new_line", "name_a": "Jasper", "name_b": "Okatie", "lat_a": 32.3591202, "lon_a": -81.1245996, "lat_b": 32.277554, "lon_b": -80.968648, "lat_center": 32.3183371, "lon_center": -81.04662379999999, "in_service_date": "2025-12-31", "location_confidence": "low", "source_kind": "official"}}, {"type": "Feature", "geometry": {"type": "Point", "coordinates": [-81.3605659, 33.6501119]}, "properties": {"utility_id": "DESC", "project_id": "06371 D", "project_name": "Wagener 115kV Tap: Construct Tap", "project_type": "new_line", "name_a": "Wagener", "name_b": null, "lat_a": 33.6501119, "lon_a": -81.3605659, "lat_b": null, "lon_b": null, "lat_center": 33.6501119, "lon_center": -81.3605659, "in_service_date": "2025-12-31", "location_confidence": "high", "source_kind": "official"}}, {"type": "Feature", "geometry": {"type": "Point", "coordinates": [-80.0702792, 32.8303196]}, "properties": {"utility_id": "DESC", "project_id": "06372 A", "project_name": "Church Creek - Ritter 230kV - Replace 38 Large Angles and Dead Ends", "project_type": "line_rebuild", "name_a": "Church Creek", "name_b": "Ritter", "lat_a": 32.8303196, "lon_a": -80.0702792, "lat_b": null, "lon_b": null, "lat_center": 32.8303196, "lon_center": -80.0702792, "in_service_date": "2024-06-01", "location_confidence": "low", "source_kind": "official"}}, {"type": "Feature", "geometry": {"type": "Point", "coordinates": [-81.6977228, 33.87218]}, "properties": {"utility_id": "DESC", "project_id": "06810 F", "project_name": "VCS2-Ward 230kV: Rebuild Line", "project_type": "line_rebuild", "name_a": "Ward", "name_b": null, "lat_a": 33.87218, "lon_a": -81.6977228, "lat_b": null, "lon_b": null, "lat_center": 33.87218, "lon_center": -81.6977228, "in_service_date": "2029-12-31", "location_confidence": "low", "source_kind": "official"}}, {"type": "Feature", "geometry": {"type": "Point", "coordinates": [-78.8864018, 35.0491473]}, "properties": {"utility_id": "DESC", "project_id": "1060A, I, L", "project_name": "Williams St Sub: Replace Sw House & Relays, AM Williams Sub: Replace Sw House, and McMeekin Sub: Add Sw House", "project_type": "substation", "name_a": "Williams St", "name_b": null, "lat_a": 35.0491473, "lon_a": -78.8864018, "lat_b": null, "lon_b": null, "lat_center": 35.0491473, "lon_center": -78.8864018, "in_service_date": "2028-12-31", "location_confidence": "medium", "source_kind": "official"}}, {"type": "Feature", "geometry": {"type": "LineString", "coordinates": [[-81.2318604, 32.9543755], [-80.8637929, 32.6974259]]}, "properties": {"utility_id": "DESC", "project_id": "6238 H", "project_name": "Fairfax-Yemassee 115kV: Upgrade for DESCSQ #1151 Interconnection", "project_type": "line_rebuild", "name_a": "Fairfax", "name_b": "Yemassee", "lat_a": 32.9543755, "lon_a": -81.2318604, "lat_b": 32.6974259, "lon_b": -80.8637929, "lat_center": 32.8259007, "lon_center": -81.04782665, "in_service_date": "2027-09-07", "location_confidence": "medium", "source_kind": "official"}}, {"type": "Feature", "geometry": {"type": "LineString", "coordinates": [[-79.8422757, 32.941402], [-79.7884409, 32.859937]]}, "properties": {"utility_id": "DESC", "project_id": "6341 A-F", "project_name": "Cainhoy - Hamlin 115kV: Rebuild Line and Cainhoy \u2013 Hamlin 115 kV #2: Construct New 115 kV Line", "project_type": "new_line", "name_a": "Cainhoy", "name_b": "Hamlin", "lat_a": 32.941402, "lon_a": -79.8422757, "lat_b": 32.859937, "lon_b": -79.7884409, "lat_center": 32.9006695, "lon_center": -79.8153583, "in_service_date": "2025-12-01", "location_confidence": "high", "source_kind": "official"}}, {"type": "Feature", "geometry": {"type": "Point", "coordinates": [-80.8637929, 32.6974259]}, "properties": {"utility_id": "DESC", "project_id": "6359", "project_name": "Yemassee\u2013 Ritter 230kV #1 & #2: Construct SPDC with B-1272", "project_type": "new_line", "name_a": "Yemassee", "name_b": "Ritter", "lat_a": 32.6974259, "lon_a": -80.8637929, "lat_b": null, "lon_b": null, "lat_center": 32.6974259, "lon_center": -80.8637929, "in_service_date": "2026-06-01", "location_confidence": "low", "source_kind": "official"}}, {"type": "Feature", "geometry": {"type": "Point", "coordinates": [-79.9321678, 33.0176985]}, "properties": {"utility_id": "DESC", "project_id": "6388 A", "project_name": "Williams-Summerville 230kV: Upgrade to SPDC B1272 ACSR", "project_type": "line_rebuild", "name_a": "Williams", "name_b": "Summerville", "lat_a": 33.0176985, "lon_a": -79.9321678, "lat_b": null, "lon_b": null, "lat_center": 33.0176985, "lon_center": -79.9321678, "in_service_date": "2027-05-01", "location_confidence": "low", "source_kind": "official"}}, {"type": "Feature", "geometry": {"type": "Point", "coordinates": [-79.826678, 34.1386942]}, "properties": {"utility_id": "DESC", "project_id": "6805 G", "project_name": "Edenwood Sub: #1 & #2 230-115kV Autobanks, Replace with 336MVA", "project_type": "substation", "name_a": "Edenwood", "name_b": null, "lat_a": 34.1386942, "lon_a": -79.826678, "lat_b": null, "lon_b": null, "lat_center": 34.1386942, "lon_center": -79.826678, "in_service_date": "2024-12-25", "location_confidence": "medium", "source_kind": "official"}}, {"type": "Feature", "geometry": {"type": "Point", "coordinates": [-79.9733901, 32.7233566]}, "properties": {"utility_id": "DESC", "project_id": "6807 B", "project_name": "Queensboro - Ft Johnson 115 kV & Queensboro-Bayfront 115kV (Queensboro-James Island Sect)", "project_type": "line_rebuild", "name_a": "Queensboro", "name_b": "Ft Johnson", "lat_a": 32.7233566, "lon_a": -79.9733901, "lat_b": null, "lon_b": null, "lat_center": 32.7233566, "lon_center": -79.9733901, "in_service_date": "2023-12-31", "location_confidence": "low", "source_kind": "official"}}, {"type": "Feature", "geometry": {"type": "Point", "coordinates": [-80.7210159, 32.4364883]}, "properties": {"utility_id": "DESC", "project_id": "6808 K", "project_name": "Burton-St Helena 115kV: Rebuild Burton-Frogmore Transmission Section", "project_type": "line_rebuild", "name_a": "Burton", "name_b": "St Helena", "lat_a": 32.4364883, "lon_a": -80.7210159, "lat_b": null, "lon_b": null, "lat_center": 32.4364883, "lon_center": -80.7210159, "in_service_date": "2024-12-31", "location_confidence": "low", "source_kind": "official"}}, {"type": "Feature", "geometry": {"type": "Point", "coordinates": [-80.7210159, 32.4364883]}, "properties": {"utility_id": "DESC", "project_id": "6808 L", "project_name": "Burton-St Helena 115kV: Frogmore Distribution - St Helena", "project_type": "line_rebuild", "name_a": "Burton", "name_b": "St Helena", "lat_a": 32.4364883, "lon_a": -80.7210159, "lat_b": null, "lon_b": null, "lat_center": 32.4364883, "lon_center": -80.7210159, "in_service_date": "2025-12-31", "location_confidence": "low", "source_kind": "official"}}, {"type": "Feature", "geometry": {"type": "MultiPoint", "coordinates": [[-81.061561, 34.0576091], [-81.1503133, 32.611892]]}, "properties": {"utility_id": "DESC", "project_id": "6808 N,O", "project_name": "VCS1-Denny Terrace 230kV & VCS1-Pineland 230kV: Rebuild Single Circuit Sections", "project_type": "line_rebuild", "name_a": "Denny Terrace", "name_b": null, "lat_a": 34.0576091, "lon_a": -81.061561, "lat_b": 32.611892, "lon_b": -81.1503133, "lat_center": 33.334750549999995, "lon_center": -81.10593714999999, "in_service_date": "2026-12-31", "location_confidence": "low", "source_kind": "official"}}, {"type": "Feature", "geometry": {"type": "Point", "coordinates": [-80.6284218, 33.8213074]}, "properties": {"utility_id": "DESC", "project_id": "6808 P", "project_name": "Wateree-Hopkins 230kV Line #1: Rebuild", "project_type": "line_rebuild", "name_a": "Wateree", "name_b": "Hopkins", "lat_a": 33.8213074, "lon_a": -80.6284218, "lat_b": null, "lon_b": null, "lat_center": 33.8213074, "lon_center": -80.6284218, "in_service_date": "2027-12-31", "location_confidence": "low", "source_kind": "official"}}, {"type": "Feature", "geometry": {"type": "Point", "coordinates": [-80.6284218, 33.8213074]}, "properties": {"utility_id": "DESC", "project_id": "6808 R", "project_name": "Wateree-Killian 230kV: Rebuild", "project_type": "line_rebuild", "name_a": "Wateree", "name_b": "Killian", "lat_a": 33.8213074, "lon_a": -80.6284218, "lat_b": null, "lon_b": null, "lat_center": 33.8213074, "lon_center": -80.6284218, "in_service_date": "2028-12-31", "location_confidence": "low", "source_kind": "official"}}, {"type": "Feature", "geometry": {"type": "LineString", "coordinates": [[-80.968648, 32.277554], [-80.8533836, 32.2350272]]}, "properties": {"utility_id": "DESC", "project_id": "6808 S", "project_name": "Okatie-Bluffton 115kV: Rebuild", "project_type": "line_rebuild", "name_a": "Okatie", "name_b": "Bluffton", "lat_a": 32.277554, "lon_a": -80.968648, "lat_b": 32.2350272, "lon_b": -80.8533836, "lat_center": 32.2562906, "lon_center": -80.9110158, "in_service_date": "2025-06-01", "location_confidence": "low", "source_kind": "official"}}, {"type": "Feature", "geometry": {"type": "Point", "coordinates": [-80.0146241, 32.8500798]}, "properties": {"utility_id": "DESC", "project_id": "6808 V", "project_name": "Faber Place-Bayfront 115kV: Rebuild North Bridge Terrace to Bayfront Section", "project_type": "line_rebuild", "name_a": "Faber Place", "name_b": "Bayfront", "lat_a": 32.8500798, "lon_a": -80.0146241, "lat_b": null, "lon_b": null, "lat_center": 32.8500798, "lon_center": -80.0146241, "in_service_date": "2028-12-31", "location_confidence": "low", "source_kind": "official"}}, {"type": "Feature", "geometry": {"type": "LineString", "coordinates": [[-82.0513618, 33.5625993], [-82.159478, 33.65682]]}, "properties": {"utility_id": "DESC", "project_id": "6809 E", "project_name": "Stevens Creek - Hooks 115kV/LR Plumb Branch 46kV Rebuilds", "project_type": "line_rebuild", "name_a": "Stevens Creek", "name_b": "Hooks", "lat_a": 33.5625993, "lon_a": -82.0513618, "lat_b": 33.65682, "lon_b": -82.159478, "lat_center": 33.60970965, "lon_center": -82.10541989999999, "in_service_date": "2024-12-31", "location_confidence": "low", "source_kind": "official"}}, {"type": "Feature", "geometry": {"type": "LineString", "coordinates": [[-80.8889142, 33.4595436], [-80.7089959, 33.5636663]]}, "properties": {"utility_id": "DESC", "project_id": "6809 F", "project_name": "Orangeburg #1 - Cameron Jct 46kV Line Rebuild", "project_type": "line_rebuild", "name_a": "Orangeburg", "name_b": "Cameron Jct", "lat_a": 33.4595436, "lon_a": -80.8889142, "lat_b": 33.5636663, "lon_b": -80.7089959, "lat_center": 33.511604950000006, "lon_center": -80.79895505, "in_service_date": "2028-12-31", "location_confidence": "high", "source_kind": "official"}}, {"type": "Feature", "geometry": {"type": "LineString", "coordinates": [[-82.0513618, 33.5625993], [-82.159478, 33.65682]]}, "properties": {"utility_id": "DESC", "project_id": "6809 G", "project_name": "Stevens Creek - Hooks 115kV/LR Plumb Branch 46kV", "project_type": "line_rebuild", "name_a": "Stevens Creek", "name_b": "Hooks", "lat_a": 33.5625993, "lon_a": -82.0513618, "lat_b": 33.65682, "lon_b": -82.159478, "lat_center": 33.60970965, "lon_center": -82.10541989999999, "in_service_date": "2025-12-31", "location_confidence": "low", "source_kind": "official"}}, {"type": "Feature", "geometry": {"type": "LineString", "coordinates": [[-82.159478, 33.65682], [-82.2015043, 33.7362884]]}, "properties": {"utility_id": "DESC", "project_id": "6809 G (Hooks Modoc)", "project_name": "Hooks - Modoc 115/46 kV Rebuild", "project_type": "line_rebuild", "name_a": "Hooks", "name_b": "Modoc", "lat_a": 33.65682, "lon_a": -82.159478, "lat_b": 33.7362884, "lon_b": -82.2015043, "lat_center": 33.6965542, "lon_center": -82.18049115, "in_service_date": "2027-12-31", "location_confidence": "medium", "source_kind": "official"}}, {"type": "Feature", "geometry": {"type": "Point", "coordinates": [-80.3539332, 32.7152773]}, "properties": {"utility_id": "DESC", "project_id": "6809 I2", "project_name": "Adams Run \u2013 Red House Road 46 kV: Replace Dawhoo River Crossing and other Structures", "project_type": "line_rebuild", "name_a": "Adams Run", "name_b": "Red House Road", "lat_a": 32.7152773, "lon_a": -80.3539332, "lat_b": null, "lon_b": null, "lat_center": 32.7152773, "lon_center": -80.3539332, "in_service_date": "2027-12-31", "location_confidence": "low", "source_kind": "official"}}, {"type": "Feature", "geometry": {"type": "LineString", "coordinates": [[-80.5920086, 33.199388], [-80.3239761, 33.8976611]]}, "properties": {"utility_id": "DESC", "project_id": "6809 M", "project_name": "St George - Sumter 230kV Tie: Rebuild Line from Santee Substation - Duke/Progress Energy Tie", "project_type": "line_rebuild", "name_a": "St George", "name_b": "Sumter", "lat_a": 33.199388, "lon_a": -80.5920086, "lat_b": 33.8976611, "lon_b": -80.3239761, "lat_center": 33.548524549999996, "lon_center": -80.45799235, "in_service_date": "2025-12-31", "location_confidence": "high", "source_kind": "official"}}, {"type": "Feature", "geometry": {"type": "LineString", "coordinates": [[-82.2015043, 33.7362884], [-82.2928038, 33.9065361]]}, "properties": {"utility_id": "DESC", "project_id": "6809 M (Modoc Mccormick)", "project_name": "Modoc \u2013 McCormick 115/46 kV Rebuild", "project_type": "line_rebuild", "name_a": "Modoc", "name_b": "Mccormick", "lat_a": 33.7362884, "lon_a": -82.2015043, "lat_b": 33.9065361, "lon_b": -82.2928038, "lat_center": 33.821412249999995, "lon_center": -82.24715405, "in_service_date": "2029-12-31", "location_confidence": "high", "source_kind": "official"}}, {"type": "Feature", "geometry": {"type": "Point", "coordinates": [-81.5644353, 33.9134867]}, "properties": {"utility_id": "DESC", "project_id": "6809 N", "project_name": "Batesburg - Saluda County 115kV: Rebuild", "project_type": "line_rebuild", "name_a": "Batesburg", "name_b": "Saluda County", "lat_a": 33.9134867, "lon_a": -81.5644353, "lat_b": null, "lon_b": null, "lat_center": 33.9134867, "lon_center": -81.5644353, "in_service_date": "2025-12-31", "location_confidence": "low", "source_kind": "official"}}, {"type": "Feature", "geometry": {"type": "LineString", "coordinates": [[-81.1348532, 33.9621858], [-81.1178417, 33.98202]]}, "properties": {"utility_id": "DESC", "project_id": "6809 R", "project_name": "CAE Industrial Park - Springdale Sub 115kV: Replace Laminated Wood Polls.", "project_type": "line_rebuild", "name_a": "Cae Industrial Park", "name_b": "Springdale", "lat_a": 33.9621858, "lon_a": -81.1348532, "lat_b": 33.98202, "lon_b": -81.1178417, "lat_center": 33.972102899999996, "lon_center": -81.12634745, "in_service_date": "2028-12-31", "location_confidence": "medium", "source_kind": "official"}}, {"type": "Feature", "geometry": {"type": "LineString", "coordinates": [[-82.0513618, 33.5625993], [-81.804506, 33.5834366]]}, "properties": {"utility_id": "DESC", "project_id": "6809 T", "project_name": "Stevens Creek - Graniteville 115 kV: Rebuild", "project_type": "line_rebuild", "name_a": "Stevens Creek", "name_b": "Graniteville", "lat_a": 33.5625993, "lon_a": -82.0513618, "lat_b": 33.5834366, "lon_b": -81.804506, "lat_center": 33.57301795, "lon_center": -81.9279339, "in_service_date": "2029-12-31", "location_confidence": "high", "source_kind": "official"}}, {"type": "Feature", "geometry": {"type": "LineString", "coordinates": [[-82.159478, 33.65682], [-82.1959307, 33.6601273]]}, "properties": {"utility_id": "DESC", "project_id": "6810 A", "project_name": "Hooks - Thurmond 115kV Tie: Rebuild", "project_type": "line_rebuild", "name_a": "Hooks", "name_b": "Thurmond", "lat_a": 33.65682, "lon_a": -82.159478, "lat_b": 33.6601273, "lon_b": -82.1959307, "lat_center": 33.658473650000005, "lon_center": -82.17770435, "in_service_date": "2024-12-31", "location_confidence": "medium", "source_kind": "official"}}, {"type": "Feature", "geometry": {"type": "Point", "coordinates": [-80.5797245, 33.5323844]}, "properties": {"utility_id": "DESC", "project_id": "6810 J", "project_name": "Elloree \u2013 Santee City 46 kV: Rebuild", "project_type": "line_rebuild", "name_a": "Elloree", "name_b": "Santee City", "lat_a": 33.5323844, "lon_a": -80.5797245, "lat_b": null, "lon_b": null, "lat_center": 33.5323844, "lon_center": -80.5797245, "in_service_date": "2027-12-31", "location_confidence": "low", "source_kind": "official"}}, {"type": "Feature", "geometry": {"type": "Point", "coordinates": [-81.0897639, 33.6098839]}, "properties": {"utility_id": "DESC", "project_id": "6810 N", "project_name": "Calhoun County - North 46 kV Rebuild", "project_type": "line_rebuild", "name_a": "North", "name_b": null, "lat_a": 33.6098839, "lon_a": -81.0897639, "lat_b": null, "lon_b": null, "lat_center": 33.6098839, "lon_center": -81.0897639, "in_service_date": "2029-12-31", "location_confidence": "low", "source_kind": "official"}}, {"type": "Feature", "geometry": {"type": "LineString", "coordinates": [[-81.909209, 33.4333777], [-81.912753, 33.473195]]}, "properties": {"utility_id": "DESC", "project_id": "6810 O", "project_name": "Urquhart \u2013 Aiken PSA 46 kV: Rebuild", "project_type": "line_rebuild", "name_a": "Urquhart", "name_b": "Aiken Psa", "lat_a": 33.4333777, "lon_a": -81.909209, "lat_b": 33.473195, "lon_b": -81.912753, "lat_center": 33.45328635, "lon_center": -81.91098099999999, "in_service_date": "2027-12-31", "location_confidence": "medium", "source_kind": "official"}}, {"type": "Feature", "geometry": {"type": "MultiLineString", "coordinates": [[[-80.7089959, 33.5636663], [-80.7089959, 33.5636663]], [[-80.7089959, 33.5636663], [-80.7610155, 33.6860637]]]}, "properties": {"utility_id": "DESC", "project_id": "6810 T", "project_name": "Cameron Jct \u2013 Cameron \u2013 St Matthews 46 kV Rebuild", "project_type": "line_rebuild", "name_a": "Cameron Jct", "name_b": "Cameron", "lat_a": 33.5636663, "lon_a": -80.7089959, "lat_b": 33.5636663, "lon_b": -80.7089959, "lat_center": 33.624865, "lon_center": -80.7350057, "in_service_date": "2028-12-31", "location_confidence": "medium", "source_kind": "official"}}, {"type": "Feature", "geometry": {"type": "LineString", "coordinates": [[-80.7089959, 33.5636663], [-80.5797245, 33.5323844]]}, "properties": {"utility_id": "DESC", "project_id": "6810 U", "project_name": "Cameron Jct \u2013 Elloree 46 kV Rebuild", "project_type": "line_rebuild", "name_a": "Cameron Jct", "name_b": "Elloree", "lat_a": 33.5636663, "lon_a": -80.7089959, "lat_b": 33.5323844, "lon_b": -80.5797245, "lat_center": 33.54802535, "lon_center": -80.6443602, "in_service_date": "2026-12-31", "location_confidence": "high", "source_kind": "official"}}, {"type": "Feature", "geometry": {"type": "Point", "coordinates": [-80.3239761, 33.8976611]}, "properties": {"utility_id": "DESC", "project_id": "6846 A", "project_name": "Eastover \u2013 Sumter 115kV DEP Tie: Rebuild with 1272 ACSR", "project_type": "line_rebuild", "name_a": "Sumter", "name_b": null, "lat_a": 33.8976611, "lon_a": -80.3239761, "lat_b": null, "lon_b": null, "lat_center": 33.8976611, "lon_center": -80.3239761, "in_service_date": "2026-05-31", "location_confidence": "low", "source_kind": "official"}}, {"type": "Feature", "geometry": {"type": "LineString", "coordinates": [[-80.0702792, 32.8303196], [-80.0146241, 32.8500798]]}, "properties": {"utility_id": "DESC", "project_id": "6847 A-B, D-H", "project_name": "Church Creek \u2013 Faber Place \u2013 Charleston Transmission: Add 230kV Line", "project_type": "new_line", "name_a": "Church Creek", "name_b": "Faber Place", "lat_a": 32.8303196, "lon_a": -80.0702792, "lat_b": 32.8500798, "lon_b": -80.0146241, "lat_center": 32.8401997, "lon_center": -80.04245165, "in_service_date": "2027-05-01", "location_confidence": "low", "source_kind": "official"}}, {"type": "Feature", "geometry": {"type": "LineString", "coordinates": [[-81.909209, 33.4333777], [-81.6693272, 33.5346321]]}, "properties": {"utility_id": "DESC", "project_id": "6852", "project_name": "Urquhart \u2013 Toolebeck 115kV line: Rebuild", "project_type": "line_rebuild", "name_a": "Urquhart", "name_b": "Toolebeck", "lat_a": 33.4333777, "lon_a": -81.909209, "lat_b": 33.5346321, "lon_b": -81.6693272, "lat_center": 33.4840049, "lon_center": -81.7892681, "in_service_date": "2026-08-12", "location_confidence": "high", "source_kind": "official"}}, {"type": "Feature", "geometry": {"type": "Point", "coordinates": [-80.0702792, 32.8303196]}, "properties": {"utility_id": "DESC", "project_id": "6869 D", "project_name": "Long Savannah 115 kV Tap: Construct", "project_type": "new_line", "name_a": "Church Creek", "name_b": null, "lat_a": 32.8303196, "lon_a": -80.0702792, "lat_b": null, "lon_b": null, "lat_center": 32.8303196, "lon_center": -80.0702792, "in_service_date": "2029-12-31", "location_confidence": "low", "source_kind": "official"}}, {"type": "Feature", "geometry": {"type": "Point", "coordinates": [-81.2168339, 34.0534342]}, "properties": {"utility_id": "DESC", "project_id": "6870 A", "project_name": "Saluda Hydro \u2013 Bush River 115kV #1 and #2 Tie Lines Rebuild", "project_type": "line_rebuild", "name_a": "Saluda Hydro", "name_b": "Bush River", "lat_a": 34.0534342, "lon_a": -81.2168339, "lat_b": null, "lon_b": null, "lat_center": 34.0534342, "lon_center": -81.2168339, "in_service_date": "2026-12-31", "location_confidence": "low", "source_kind": "official"}}, {"type": "Feature", "geometry": {"type": "Point", "coordinates": [-80.0702792, 32.8303196]}, "properties": {"utility_id": "DESC", "project_id": "6877 A", "project_name": "Church Creek \u2013 Dawson 230 kV: Rebuild from Long Savannah to Dawson", "project_type": "line_rebuild", "name_a": "Church Creek", "name_b": "Dawson", "lat_a": 32.8303196, "lon_a": -80.0702792, "lat_b": null, "lon_b": null, "lat_center": 32.8303196, "lon_center": -80.0702792, "in_service_date": "2029-12-31", "location_confidence": "low", "source_kind": "official"}}, {"type": "Feature", "geometry": {"type": "LineString", "coordinates": [[-80.968648, 32.277554], [-81.175112, 32.352116]]}, "properties": {"utility_id": "DESC", "project_id": "6888", "project_name": "Okatie \u2013 McIntosh 115kV Tie: Add Series Reactor", "project_type": "substation", "name_a": "Okatie", "name_b": "Mcintosh", "lat_a": 32.277554, "lon_a": -80.968648, "lat_b": 32.352116, "lon_b": -81.175112, "lat_center": 32.314835, "lon_center": -81.07188, "in_service_date": "2028-12-31", "location_confidence": "low", "source_kind": "official"}}, {"type": "Feature", "geometry": {"type": "Point", "coordinates": [-82.414219, 33.453955]}, "properties": {"utility_id": "GPC", "project_id": "14222", "project_name": "THOMSON PRIMARY 230/115KV SECOND TRANSFORMER", "project_type": "substation", "name_a": "Thomson Primary", "name_b": null, "lat_a": 33.453955, "lon_a": -82.414219, "lat_b": null, "lon_b": null, "lat_center": 33.453955, "lon_center": -82.414219, "in_service_date": "2033-06-01", "location_confidence": "medium", "source_kind": "official"}}, {"type": "Feature", "geometry": {"type": "LineString", "coordinates": [[-81.964742, 33.46077], [-81.935045, 33.442514]]}, "properties": {"utility_id": "GPC", "project_id": "16007", "project_name": "FENWICK STREET - SAND BAR FERRY 115KV (RECONDUCTOR/REBUILD)", "project_type": "line_rebuild", "name_a": "Fenwick Street", "name_b": "Sand Bar Ferry", "lat_a": 33.46077, "lon_a": -81.964742, "lat_b": 33.442514, "lon_b": -81.935045, "lat_center": 33.451642, "lon_center": -81.9498935, "in_service_date": "2026-06-01", "location_confidence": "low", "source_kind": "official"}}, {"type": "Feature", "geometry": {"type": "Point", "coordinates": [-81.2531513, 32.0067859]}, "properties": {"utility_id": "GPC", "project_id": "17075", "project_name": "SAV: LITTLE OGEECHEE 230- 115KV: RELAY MODERNIZATION", "project_type": "substation", "name_a": "Little Ogeechee", "name_b": null, "lat_a": 32.0067859, "lon_a": -81.2531513, "lat_b": null, "lon_b": null, "lat_center": 32.0067859, "lon_center": -81.2531513, "in_service_date": "2025-12-31", "location_confidence": "high", "source_kind": "official"}}, {"type": "Feature", "geometry": {"type": "LineString", "coordinates": [[-82.1686481, 33.5439942], [-82.414219, 33.453955]]}, "properties": {"utility_id": "GPC", "project_id": "17993", "project_name": "EVANS PRIMARY - THOMSON PRIMARY 115KV REBUILD", "project_type": "line_rebuild", "name_a": "Evans Primary", "name_b": "Thomson Primary", "lat_a": 33.5439942, "lon_a": -82.1686481, "lat_b": 33.453955, "lon_b": -82.414219, "lat_center": 33.4989746, "lon_center": -82.29143355, "in_service_date": "2034-12-31", "location_confidence": "medium", "source_kind": "official"}}, {"type": "Feature", "geometry": {"type": "Point", "coordinates": [-81.368377, 32.1552821]}, "properties": {"utility_id": "GPC", "project_id": "19523", "project_name": "SAV: CC - HYUNDAI MOTORS SAVANNAH AKA. PROJECT EA", "project_type": "substation", "name_a": "Meldrim", "name_b": null, "lat_a": 32.1552821, "lon_a": -81.368377, "lat_b": null, "lon_b": null, "lat_center": 32.1552821, "lon_center": -81.368377, "in_service_date": "2025-01-01", "location_confidence": "low", "source_kind": "official"}}, {"type": "Feature", "geometry": {"type": "Point", "coordinates": [-81.2531513, 32.0067859]}, "properties": {"utility_id": "GPC", "project_id": "19966", "project_name": "SAV: CC - BIG OGEECHEE 500/230KV (CC NETWORK IMPROVEMENTS)", "project_type": "area_package", "name_a": "Little Ogeechee", "name_b": null, "lat_a": 32.0067859, "lon_a": -81.2531513, "lat_b": null, "lon_b": null, "lat_center": 32.0067859, "lon_center": -81.2531513, "in_service_date": "2026-06-01", "location_confidence": "low", "source_kind": "official"}}, {"type": "Feature", "geometry": {"type": "Point", "coordinates": [-82.687296, 33.3805007]}, "properties": {"utility_id": "GPC", "project_id": "19996", "project_name": "GOLDENS CREEK - WARRENTON PRIMARY 230KV REBUILD", "project_type": "line_rebuild", "name_a": "Warrenton Primary", "name_b": null, "lat_a": 33.3805007, "lon_a": -82.687296, "lat_b": null, "lon_b": null, "lat_center": 33.3805007, "lon_center": -82.687296, "in_service_date": "2030-06-01", "location_confidence": "low", "source_kind": "official"}}, {"type": "Feature", "geometry": {"type": "LineString", "coordinates": [[-81.2094724, 32.2487012], [-81.1751124, 32.3521162]]}, "properties": {"utility_id": "GPC", "project_id": "20065", "project_name": "SAV: GOSHEN (SAV) - MCINTOSH 115KV LINE REBUILD", "project_type": "line_rebuild", "name_a": "Goshen (SAV)", "name_b": "Mcintosh", "lat_a": 32.2487012, "lon_a": -81.2094724, "lat_b": 32.3521162, "lon_b": -81.1751124, "lat_center": 32.3004087, "lon_center": -81.1922924, "in_service_date": "2027-06-01", "location_confidence": "high", "source_kind": "official"}}, {"type": "Feature", "geometry": {"type": "LineString", "coordinates": [[-81.1444637, 32.0412308], [-81.0483845, 32.0668279]]}, "properties": {"utility_id": "GPC", "project_id": "20066", "project_name": "SAV: BOULEVARD - DEPTFORD 115KV RECONDUCTOR", "project_type": "line_rebuild", "name_a": "Boulevard", "name_b": "Deptford", "lat_a": 32.0412308, "lon_a": -81.1444637, "lat_b": 32.0668279, "lon_b": -81.0483845, "lat_center": 32.05402935, "lon_center": -81.09642410000001, "in_service_date": "2026-06-01", "location_confidence": "high", "source_kind": "official"}}, {"type": "Feature", "geometry": {"type": "LineString", "coordinates": [[-81.0483845, 32.0668279], [-81.0861807, 32.0226869]]}, "properties": {"utility_id": "GPC", "project_id": "20067", "project_name": "SAV: DEPTFORD - MAGNOLIA 115KV RECONDUCTOR", "project_type": "line_rebuild", "name_a": "Deptford", "name_b": "Magnolia", "lat_a": 32.0668279, "lon_a": -81.0483845, "lat_b": 32.0226869, "lon_b": -81.0861807, "lat_center": 32.044757399999995, "lon_center": -81.0672826, "in_service_date": "2025-06-01", "location_confidence": "high", "source_kind": "official"}}, {"type": "Feature", "geometry": {"type": "LineString", "coordinates": [[-81.1751124, 32.3521162], [-81.031444, 32.335802]]}, "properties": {"utility_id": "GPC", "project_id": "20277", "project_name": "SAV: MCINTOSH - PURRYSBURG 230KV REACTORS", "project_type": "substation", "name_a": "Mcintosh", "name_b": "Purrysburg", "lat_a": 32.3521162, "lon_a": -81.1751124, "lat_b": 32.335802, "lon_b": -81.031444, "lat_center": 32.3439591, "lon_center": -81.1032782, "in_service_date": "2026-06-01", "location_confidence": "low", "source_kind": "official"}}, {"type": "Feature", "geometry": {"type": "Point", "coordinates": [-81.0861807, 32.0226869]}, "properties": {"utility_id": "GPC", "project_id": "20407", "project_name": "SAV: MAGNOLIA - TRUMAN PARKWAY 115KV REBUILD", "project_type": "line_rebuild", "name_a": "Magnolia", "name_b": "Truman Parkway", "lat_a": 32.0226869, "lon_a": -81.0861807, "lat_b": null, "lon_b": null, "lat_center": 32.0226869, "lon_center": -81.0861807, "in_service_date": "2028-06-01", "location_confidence": "low", "source_kind": "official"}}, {"type": "Feature", "geometry": {"type": "Point", "coordinates": [-82.4158724, 32.8846571]}, "properties": {"utility_id": "GPC", "project_id": "20756", "project_name": "HATCH - WADLEY 500 KV LINE STRATEGIC PROJECT", "project_type": "new_line", "name_a": "Wadley", "name_b": null, "lat_a": 32.8846571, "lon_a": -82.4158724, "lat_b": null, "lon_b": null, "lat_center": 32.8846571, "lon_center": -82.4158724, "in_service_date": "2031-06-01", "location_confidence": "low", "source_kind": "official"}}, {"type": "Feature", "geometry": {"type": "LineString", "coordinates": [[-81.226912, 32.1077199], [-81.1887223, 32.0835097]]}, "properties": {"utility_id": "GPC", "project_id": "20783", "project_name": "SAV: COLEMAN - DEAN FOREST 115KV LINE REBUILD", "project_type": "line_rebuild", "name_a": "Coleman", "name_b": "Dean Forest", "lat_a": 32.1077199, "lon_a": -81.226912, "lat_b": 32.0835097, "lon_b": -81.1887223, "lat_center": 32.0956148, "lon_center": -81.20781715, "in_service_date": "2028-06-01", "location_confidence": "medium", "source_kind": "official"}}, {"type": "Feature", "geometry": {"type": "LineString", "coordinates": [[-81.226912, 32.1077199], [-81.368377, 32.1552821]]}, "properties": {"utility_id": "GPC", "project_id": "20784", "project_name": "SAV: COLEMAN - MELDRIM 115KV LINE REBUILD", "project_type": "line_rebuild", "name_a": "Coleman", "name_b": "Meldrim", "lat_a": 32.1077199, "lon_a": -81.226912, "lat_b": 32.1552821, "lon_b": -81.368377, "lat_center": 32.131501, "lon_center": -81.29764449999999, "in_service_date": "2032-06-01", "location_confidence": "medium", "source_kind": "official"}}, {"type": "Feature", "geometry": {"type": "LineString", "coordinates": [[-81.2094724, 32.2487012], [-81.1459835, 32.1481353]]}, "properties": {"utility_id": "GPC", "project_id": "20785", "project_name": "SAV: GOSHEN (SAV) - KRAFT 115KV LINE REBUILD", "project_type": "line_rebuild", "name_a": "Goshen (SAV)", "name_b": "Kraft", "lat_a": 32.2487012, "lon_a": -81.2094724, "lat_b": 32.1481353, "lon_b": -81.1459835, "lat_center": 32.19841825, "lon_center": -81.17772794999999, "in_service_date": "2027-06-01", "location_confidence": "high", "source_kind": "official"}}, {"type": "Feature", "geometry": {"type": "Point", "coordinates": [-81.2531513, 32.0067859]}, "properties": {"utility_id": "GPC", "project_id": "20787", "project_name": "SAV: LITTLE OGEECHEE 230/115KV BANK REPLACEMENT", "project_type": "substation", "name_a": "Little Ogeechee", "name_b": null, "lat_a": 32.0067859, "lon_a": -81.2531513, "lat_b": null, "lon_b": null, "lat_center": 32.0067859, "lon_center": -81.2531513, "in_service_date": "2034-06-01", "location_confidence": "high", "source_kind": "official"}}, {"type": "Feature", "geometry": {"type": "LineString", "coordinates": [[-82.1686481, 33.5439942], [-82.1959307, 33.6601273]]}, "properties": {"utility_id": "GPC", "project_id": "20793", "project_name": "EVANS PRIMARY - THURMOND DAM (USA) #5 115KV REBUILD", "project_type": "line_rebuild", "name_a": "Evans Primary", "name_b": "Thurmond Dam", "lat_a": 33.5439942, "lon_a": -82.1686481, "lat_b": 33.6601273, "lon_b": -82.1959307, "lat_center": 33.60206075, "lon_center": -82.1822894, "in_service_date": "2033-06-01", "location_confidence": "high", "source_kind": "official"}}, {"type": "Feature", "geometry": {"type": "LineString", "coordinates": [[-82.1686481, 33.5439942], [-82.1959307, 33.6601273]]}, "properties": {"utility_id": "GPC", "project_id": "20794", "project_name": "EVANS PRIMARY - THURMOND DAM (USA) #6 115KV REBUILD", "project_type": "line_rebuild", "name_a": "Evans Primary", "name_b": "Thurmond Dam", "lat_a": 33.5439942, "lon_a": -82.1686481, "lat_b": 33.6601273, "lon_b": -82.1959307, "lat_center": 33.60206075, "lon_center": -82.1822894, "in_service_date": "2033-06-01", "location_confidence": "high", "source_kind": "official"}}, {"type": "Feature", "geometry": {"type": "Point", "coordinates": [-81.368377, 32.1552821]}, "properties": {"utility_id": "GPC", "project_id": "20796", "project_name": "SAV: MELDRIM BANK D REPLACEMENT", "project_type": "substation", "name_a": "Meldrim", "name_b": null, "lat_a": 32.1552821, "lon_a": -81.368377, "lat_b": null, "lon_b": null, "lat_center": 32.1552821, "lon_center": -81.368377, "in_service_date": "2033-06-01", "location_confidence": "high", "source_kind": "official"}}, {"type": "Feature", "geometry": {"type": "LineString", "coordinates": [[-81.1444637, 32.0412308], [-81.0861807, 32.0226869]]}, "properties": {"utility_id": "GPC", "project_id": "21006", "project_name": "SAV: BOULEVARD - MAGNOLIA 115 KV LINE REBUILD", "project_type": "line_rebuild", "name_a": "Boulevard", "name_b": "Magnolia", "lat_a": 32.0412308, "lon_a": -81.1444637, "lat_b": 32.0226869, "lon_b": -81.0861807, "lat_center": 32.031958849999995, "lon_center": -81.11532220000001, "in_service_date": "2029-06-01", "location_confidence": "high", "source_kind": "official"}}, {"type": "Feature", "geometry": {"type": "LineString", "coordinates": [[-81.1887223, 32.0835097], [-81.2531513, 32.0067859]]}, "properties": {"utility_id": "GPC", "project_id": "21023", "project_name": "SAV: DEAN FOREST - LITTLE OGEECHEE 230 KV REBUILD", "project_type": "line_rebuild", "name_a": "Dean Forest", "name_b": "Little Ogeechee", "lat_a": 32.0835097, "lon_a": -81.1887223, "lat_b": 32.0067859, "lon_b": -81.2531513, "lat_center": 32.045147799999995, "lon_center": -81.2209368, "in_service_date": "2029-06-01", "location_confidence": "high", "source_kind": "official"}}, {"type": "Feature", "geometry": {"type": "Point", "coordinates": [-81.9953118, 33.3197599]}, "properties": {"utility_id": "GPC", "project_id": "21116", "project_name": "GOSHEN AREA STRATEGIC SOLUTION", "project_type": "area_package", "name_a": "Goshen", "name_b": null, "lat_a": 33.3197599, "lon_a": -81.9953118, "lat_b": null, "lon_b": null, "lat_center": 33.3197599, "lon_center": -81.9953118, "in_service_date": "2030-06-01", "location_confidence": "low", "source_kind": "official"}}]}